{"type": "FeatureCollection", "features": [{"type": "Feature", "properties": {"housenumber": "35", "street": "улица Ломинского", "name": "Фасоль"}, "geometry": {"type": "Point", "coordinates": [60.7447395, 56.0734406]}}, {"type": "Feature", "properties": {"housenumber": "7А", "street": "бульвар Циолковского", "name": "Редакция газеты \"ОКНО\""}, "geometry": {"type": "Point", "coordinates": [60.7393009, 56.0876358]}}, {"type": "Feature", "properties": {"housenumber": "22Б", "street": "Транспортная улица", "name": "\"ЗеленСтрой-Снежинск\""}, "geometry": {"type": "Point", "coordinates": [60.7336149, 56.0734119]}}, {"type": "Feature", "properties": {"housenumber": "20А", "street": "улица Забабахина", "name": "Мясоедовъ"}, "geometry": {"type": "Point", "coordinates": [60.7493993, 56.0772254]}}, {"type": "Feature", "properties": {"housenumber": "23", "street": "улица Свердлова", "name": "Ваше хобби"}, "geometry": {"type": "Point", "coordinates": [60.7325636, 56.0892652]}}, {"type": "Feature", "properties": {"housenumber": "24А", "street": "Транспортная улица", "name": "Гараж ИП. КОТЕГОВ"}, "geometry": {"type": "Point", "coordinates": [60.7309647, 56.0737419]}}, {"type": "Feature", "properties": {"housenumber": "26", "street": "улица Чуйкова", "name": "Гринвил"}, "geometry": {"type": "Point", "coordinates": [60.7650321, 56.0758218]}}, {"type": "Feature", "properties": {"housenumber": "1А", "street": "улица Ломинского", "name": "Beauty_Room"}, "geometry": {"type": "Point", "coordinates": [60.7440339, 56.0816578]}}, {"type": "Feature", "properties": {"housenumber": "1А", "street": "улица Ломинского", "name": "УралАвтоСаунд"}, "geometry": {"type": "Point", "coordinates": [60.7439689, 56.0816349]}}, {"type": "Feature", "properties": {"housenumber": "39/1", "street": "", "name": "Первый Гипермаркет Мебели"}, "geometry": {"type": "Point", "coordinates": [60.7216972, 56.082722]}}, {"type": "Feature", "properties": {"housenumber": "36", "street": "улица Свердлова", "name": "Wildberries"}, "geometry": {"type": "Point", "coordinates": [60.7334785, 56.089222]}}, {"type": "Feature", "properties": {"housenumber": "8", "street": "Пионерская улица", "name": ""}, "geometry": {"type": "Point", "coordinates": [60.7686049, 56.0726493]}}, {"type": "Feature", "properties": {"housenumber": "2", "street": "Сиреневая улица", "name": ""}, "geometry": {"type": "Point", "coordinates": [60.7653433, 56.0704905]}}, {"type": "Feature", "properties": {"housenumber": "1А", "street": "Лесная улица", "name": ""}, "geometry": {"type": "Point", "coordinates": [60.7639942, 56.0700039]}}, {"type": "Feature", "properties": {"housenumber": "6", "street": "Лесная улица", "name": ""}, "geometry": {"type": "Point", "coordinates": [60.7680523, 56.0693047]}}, {"type": "Feature", "properties": {"housenumber": "6", "street": "улица Захаренкова", "name": ""}, "geometry": {"type": "Point", "coordinates": [60.7614622, 56.0700391]}}, {"type": "Feature", "properties": {"housenumber": "7", "street": "Солнечная улица", "name": ""}, "geometry": {"type": "Point", "coordinates": [60.7616955, 56.0684558]}}, {"type": "Feature", "properties": {"housenumber": "5", "street": "Солнечная улица", "name": ""}, "geometry": {"type": "Point", "coordinates": [60.7621434, 56.0684064]}}, {"type": "Feature", "properties": {"housenumber": "14", "street": "Южная улица", "name": ""}, "geometry": {"type": "Point", "coordinates": [60.7654224, 56.0658887]}}, {"type": "Feature", "properties": {"housenumber": "6", "street": "Южная улица", "name": ""}, "geometry": {"type": "Point", "coordinates": [60.7608479, 56.0659838]}}, {"type": "Feature", "properties": {"housenumber": "12", "street": "Родниковая улица", "name": ""}, "geometry": {"type": "Point", "coordinates": [60.762822, 56.0667385]}}, {"type": "Feature", "properties": {"housenumber": "1А", "street": "Южная улица", "name": ""}, "geometry": {"type": "Point", "coordinates": [60.7601854, 56.0665348]}}, {"type": "Feature", "properties": {"housenumber": "1Б", "street": "Южная улица", "name": ""}, "geometry": {"type": "Point", "coordinates": [60.7606146, 56.0665296]}}, {"type": "Feature", "properties": {"housenumber": "11", "street": "улица Дзержинского", "name": ""}, "geometry": {"type": "Point", "coordinates": [60.7404811, 56.0814054]}}, {"type": "Feature", "properties": {"housenumber": "11А", "street": "улица Дзержинского", "name": ""}, "geometry": {"type": "Point", "coordinates": [60.7404446, 56.0811097]}}, {"type": "Feature", "properties": {"housenumber": "6", "street": "улица Пищерова", "name": "Пятерочка"}, "geometry": {"type": "Point", "coordinates": [60.7276171, 56.0910921]}}, {"type": "Feature", "properties": {"housenumber": "35", "street": "улица Васильева", "name": "Чижик"}, "geometry": {"type": "Point", "coordinates": [60.7259875, 56.0895228]}}, {"type": "Feature", "properties": {"housenumber": "35", "street": "улица Васильева", "name": "Wildberries"}, "geometry": {"type": "Point", "coordinates": [60.726076, 56.0893707]}}, {"type": "Feature", "properties": {"housenumber": "1", "street": "улица Забабахина", "name": ""}, "geometry": {"type": "Point", "coordinates": [60.7439683, 56.0799748]}}, {"type": "Feature", "properties": {"housenumber": "1 к1", "street": "улица Забабахина", "name": ""}, "geometry": {"type": "Point", "coordinates": [60.7445305, 56.0802681]}}, {"type": "Feature", "properties": {"housenumber": "1 к2", "street": "улица Забабахина", "name": ""}, "geometry": {"type": "Point", "coordinates": [60.7448331, 56.0798275]}}]}