{"type":"FeatureCollection","features":[{"type":"Feature","properties":{"id":48379784,"name":"","housenumber":"","street":""},"geometry":{"type":"Polygon","coordinates":[[[60.7387224,56.0720028],[60.7388387,56.0720031],[60.7387787,56.0713374],[60.7387187,56.0710017],[60.7376995,56.0710327],[60.7376437,56.0713822],[60.7376514,56.0714353],[60.7385374,56.0714087],[60.738597,56.0720091],[60.7387224,56.0720028]]]}},{"type":"Feature","properties":{"id":48380800,"name":"","housenumber":"","street":""},"geometry":{"type":"Polygon","coordinates":[[[60.7413038,56.0822075],[60.7412236,56.0814943],[60.7416873,56.0814712],[60.7417675,56.0821874],[60.7413038,56.0822075]]]}},{"type":"Feature","properties":{"id":48489870,"name":"","housenumber":"","street":""},"geometry":{"type":"Polygon","coordinates":[[[60.7431757,56.0752023],[60.7435892,56.0751918],[60.7435367,56.0745495],[60.7434339,56.0745522],[60.7434158,56.0743306],[60.7434135,56.0743029],[60.7434867,56.074301],[60.743406,56.073314],[60.7430221,56.0733238],[60.7431757,56.0752023]]]}},{"type":"Feature","properties":{"id":48504341,"name":"","housenumber":"","street":""},"geometry":{"type":"Polygon","coordinates":[[[60.7357784,56.0884227],[60.7355038,56.0883332],[60.7354232,56.088029],[60.7359885,56.0882073],[60.7357784,56.0884227]]]}},{"type":"Feature","properties":{"id":48671216,"name":"","housenumber":"","street":""},"geometry":{"type":"Polygon","coordinates":[[[60.7541921,56.0787483],[60.7541504,56.07823],[60.7547769,56.0782144],[60.7548187,56.0787326],[60.7541921,56.0787483]]]}},{"type":"Feature","properties":{"id":48817871,"name":"Стоянка на 9-й (старая)","housenumber":"","street":""},"geometry":{"type":"Polygon","coordinates":[[[60.7142418,56.0651434],[60.7168994,56.0650742],[60.7168833,56.0648277],[60.7168462,56.0646151],[60.7171728,56.0646088],[60.7172786,56.0646068],[60.7173149,56.0645408],[60.7171998,56.0645061],[60.7171983,56.0644591],[60.7172507,56.0643443],[60.7168257,56.0641187],[60.7167965,56.0636468],[60.7159427,56.0636589],[60.715927,56.0637089],[60.7153372,56.0637368],[60.7151798,56.0638374],[60.7140932,56.0638933],[60.7140952,56.0639926],[60.7142276,56.0650323],[60.7142418,56.0651434]]]}},{"type":"Feature","properties":{"id":49684483,"name":"","housenumber":"","street":""},"geometry":{"type":"Polygon","coordinates":[[[60.7518795,56.0794478],[60.7519047,56.0799296],[60.7533369,56.0799063],[60.7533303,56.0795337],[60.7531035,56.079541],[60.752947,56.0794135],[60.7518795,56.0794478]]]}},{"type":"Feature","properties":{"id":49689634,"name":"","housenumber":"","street":""},"geometry":{"type":"Polygon","coordinates":[[[60.7648697,56.0812912],[60.7652391,56.0810701],[60.7661391,56.0810199],[60.7661694,56.081183],[60.7676285,56.0810932],[60.7676709,56.0812329],[60.7658894,56.0813582],[60.76484,56.0814276],[60.7648311,56.081315],[60.7648697,56.0812912]]]}},{"type":"Feature","properties":{"id":81637825,"name":"","housenumber":"","street":""},"geometry":{"type":"Polygon","coordinates":[[[60.7384225,56.0911149],[60.7386465,56.0912163],[60.7389493,56.0910004],[60.7387402,56.090906],[60.7384225,56.0911149]]]}},{"type":"Feature","properties":{"id":85583517,"name":"","housenumber":"","street":""},"geometry":{"type":"Polygon","coordinates":[[[60.7512486,56.0731345],[60.7521688,56.0731078],[60.7526654,56.073328],[60.7527891,56.0733207],[60.75279,56.0733209],[60.7527468,56.0730159],[60.7519687,56.073027],[60.7519597,56.0729854],[60.7512289,56.073014],[60.7512486,56.0731345]]]}},{"type":"Feature","properties":{"id":85583518,"name":"","housenumber":"","street":""},"geometry":{"type":"Polygon","coordinates":[[[60.7514915,56.0744607],[60.7515085,56.0746251],[60.7516492,56.0746217],[60.7516319,56.0744783],[60.7514915,56.0744607]]]}},{"type":"Feature","properties":{"id":85674493,"name":"","housenumber":"","street":""},"geometry":{"type":"Polygon","coordinates":[[[60.7295764,56.0923697],[60.7300383,56.0923537],[60.7300233,56.092219],[60.7298014,56.0922286],[60.7295614,56.092235],[60.7295764,56.0923697]]]}},{"type":"Feature","properties":{"id":85674509,"name":"","housenumber":"","street":""},"geometry":{"type":"Polygon","coordinates":[[[60.7232032,56.0913123],[60.7234634,56.0913025],[60.7234329,56.0910751],[60.723175,56.0910847],[60.7232032,56.0913123]]]}},{"type":"Feature","properties":{"id":147395947,"name":"","housenumber":"","street":""},"geometry":{"type":"Polygon","coordinates":[[[60.7318771,56.0717654],[60.7301908,56.071778],[60.7299155,56.0716013],[60.7292091,56.0715925],[60.7292027,56.0714182],[60.7318476,56.0714681],[60.7318771,56.0717654]]]}},{"type":"Feature","properties":{"id":151029305,"name":"","housenumber":"","street":""},"geometry":{"type":"Polygon","coordinates":[[[60.7217482,56.0785759],[60.724075,56.0784979],[60.7240602,56.0783598],[60.72405,56.0782652],[60.7217232,56.0783432],[60.7217482,56.0785759]]]}},{"type":"Feature","properties":{"id":175301405,"name":"","housenumber":"","street":""},"geometry":{"type":"Polygon","coordinates":[[[60.6859205,56.0706533],[60.6868631,56.0706736],[60.6868755,56.0702283],[60.6859355,56.070238],[60.6859205,56.0706533]]]}},{"type":"Feature","properties":{"id":175417758,"name":"Стоянка на 9-ой (новая)","housenumber":"","street":""},"geometry":{"type":"Polygon","coordinates":[[[60.713625,56.064062],[60.7137672,56.0650813],[60.7107685,56.0652116],[60.7107593,56.0651453],[60.7106264,56.0641923],[60.7106681,56.0641905],[60.7135572,56.0640649],[60.713625,56.064062]]]}},{"type":"Feature","properties":{"id":245408169,"name":"","housenumber":"","street":""},"geometry":{"type":"Polygon","coordinates":[[[60.7385051,56.0808119],[60.7389542,56.0807959],[60.7389229,56.0805228],[60.7384739,56.0805387],[60.7385051,56.0808119]]]}},{"type":"Feature","properties":{"id":528503303,"name":"стоянка грузовых авто","housenumber":"","street":""},"geometry":{"type":"Polygon","coordinates":[[[60.8071428,56.069658],[60.8085054,56.0700383],[60.8088374,56.0696005],[60.8073859,56.0692612],[60.8071428,56.069658]]]}},{"type":"Feature","properties":{"id":614659846,"name":"","housenumber":"","street":""},"geometry":{"type":"Polygon","coordinates":[[[60.7214451,56.0833024],[60.7230463,56.0832381],[60.7230399,56.0831881],[60.7214386,56.0832524],[60.7214451,56.0833024]]]}},{"type":"Feature","properties":{"id":614659849,"name":"","housenumber":"","street":""},"geometry":{"type":"Polygon","coordinates":[[[60.7262467,56.0854701],[60.7267726,56.0854532],[60.7267697,56.0854033],[60.7262443,56.0854194],[60.7262467,56.0854701]]]}},{"type":"Feature","properties":{"id":618321291,"name":"","housenumber":"","street":""},"geometry":{"type":"Polygon","coordinates":[[[60.7119513,56.0855098],[60.7137161,56.0858301],[60.7138373,56.0856222],[60.7120724,56.0853019],[60.7119513,56.0855098]]]}},{"type":"Feature","properties":{"id":618412048,"name":"","housenumber":"","street":""},"geometry":{"type":"Polygon","coordinates":[[[60.7388833,56.0863045],[60.7390924,56.0863417],[60.7392158,56.0861262],[60.7390067,56.086089],[60.7388833,56.0863045]]]}},{"type":"Feature","properties":{"id":618412049,"name":"","housenumber":"","street":""},"geometry":{"type":"Polygon","coordinates":[[[60.7241245,56.078997],[60.7240671,56.0789991],[60.724098,56.0792588],[60.7241553,56.0792567],[60.7241245,56.078997]]]}},{"type":"Feature","properties":{"id":618412050,"name":"","housenumber":"","street":""},"geometry":{"type":"Polygon","coordinates":[[[60.7198027,56.0789461],[60.7220611,56.0788608],[60.7220543,56.0788046],[60.7197958,56.0788899],[60.7198027,56.0789461]]]}},{"type":"Feature","properties":{"id":618420136,"name":"","housenumber":"","street":""},"geometry":{"type":"Polygon","coordinates":[[[60.7187163,56.0878677],[60.7188343,56.087935],[60.7191347,56.0879215],[60.7192045,56.0878557],[60.7191937,56.0877922],[60.7190869,56.087792],[60.7190759,56.0877156],[60.7187238,56.0877314],[60.7187344,56.0878053],[60.7187053,56.087806],[60.7187163,56.0878677]]]}},{"type":"Feature","properties":{"id":618430154,"name":"","housenumber":"","street":""},"geometry":{"type":"Polygon","coordinates":[[[60.7316551,56.0897525],[60.7316437,56.0898296],[60.7321827,56.0898033],[60.7321376,56.0897281],[60.7316551,56.0897525]]]}},{"type":"Feature","properties":{"id":618450415,"name":"","housenumber":"","street":""},"geometry":{"type":"Polygon","coordinates":[[[60.7331648,56.0748237],[60.7338126,56.0748042],[60.7338006,56.0746801],[60.7331529,56.0746995],[60.7331648,56.0748237]]]}},{"type":"Feature","properties":{"id":618613898,"name":"","housenumber":"","street":""},"geometry":{"type":"Polygon","coordinates":[[[60.7534289,56.0713738],[60.7534879,56.0719846],[60.7538974,56.0719722],[60.7538384,56.0713614],[60.7534289,56.0713738]]]}},{"type":"Feature","properties":{"id":618618982,"name":"","housenumber":"","street":""},"geometry":{"type":"Polygon","coordinates":[[[60.7613254,56.0773647],[60.7616664,56.0773554],[60.7616262,56.0768973],[60.7612851,56.0769066],[60.7613254,56.0773647]]]}},{"type":"Feature","properties":{"id":618618983,"name":"","housenumber":"","street":""},"geometry":{"type":"Polygon","coordinates":[[[60.7560226,56.0819613],[60.7560307,56.0820321],[60.7567442,56.0820066],[60.7567361,56.0819359],[60.7560226,56.0819613]]]}},{"type":"Feature","properties":{"id":618618985,"name":"","housenumber":"","street":""},"geometry":{"type":"Polygon","coordinates":[[[60.7552931,56.0818476],[60.755302,56.0819003],[60.7562381,56.0818509],[60.7562292,56.0817982],[60.7552931,56.0818476]]]}},{"type":"Feature","properties":{"id":618618986,"name":"","housenumber":"","street":""},"geometry":{"type":"Polygon","coordinates":[[[60.7574791,56.0818116],[60.7589462,56.0817652],[60.7589413,56.0817165],[60.7574741,56.0817629],[60.7574791,56.0818116]]]}},{"type":"Feature","properties":{"id":618618987,"name":"","housenumber":"","street":""},"geometry":{"type":"Polygon","coordinates":[[[60.7571304,56.0819351],[60.7571364,56.081985],[60.7580389,56.0819513],[60.7580329,56.0819014],[60.7571304,56.0819351]]]}},{"type":"Feature","properties":{"id":618618988,"name":"","housenumber":"","street":""},"geometry":{"type":"Polygon","coordinates":[[[60.7619342,56.0817802],[60.7619375,56.0818383],[60.7627904,56.0818233],[60.7627872,56.0817652],[60.7619342,56.0817802]]]}},{"type":"Feature","properties":{"id":618618989,"name":"","housenumber":"","street":""},"geometry":{"type":"Polygon","coordinates":[[[60.7619047,56.0816724],[60.7629132,56.0816665],[60.7629121,56.0816095],[60.7619036,56.0816155],[60.7619047,56.0816724]]]}},{"type":"Feature","properties":{"id":618618990,"name":"","housenumber":"","street":""},"geometry":{"type":"Polygon","coordinates":[[[60.7610773,56.081861],[60.7616217,56.0818416],[60.7616142,56.0817757],[60.7610697,56.0817951],[60.7610773,56.081861]]]}},{"type":"Feature","properties":{"id":618618991,"name":"","housenumber":"","street":""},"geometry":{"type":"Polygon","coordinates":[[[60.7599279,56.0819052],[60.7604027,56.0818842],[60.7603931,56.0818164],[60.7599183,56.0818374],[60.7599279,56.0819052]]]}},{"type":"Feature","properties":{"id":618618992,"name":"","housenumber":"","street":""},"geometry":{"type":"Polygon","coordinates":[[[60.7604711,56.081659],[60.7604771,56.081716],[60.7610216,56.081698],[60.7610156,56.081641],[60.7604711,56.081659]]]}},{"type":"Feature","properties":{"id":845432871,"name":"","housenumber":"","street":""},"geometry":{"type":"Polygon","coordinates":[[[60.7208352,56.0877872],[60.7206971,56.0877932],[60.7207148,56.0879748],[60.7208741,56.088042],[60.7208352,56.0877872]]]}},{"type":"Feature","properties":{"id":845432872,"name":"","housenumber":"","street":""},"geometry":{"type":"Polygon","coordinates":[[[60.7215536,56.0889819],[60.7214616,56.0883678],[60.7213278,56.0883738],[60.7213963,56.0889045],[60.7215536,56.0889819]]]}},{"type":"Feature","properties":{"id":845432894,"name":"","housenumber":"","street":""},"geometry":{"type":"Polygon","coordinates":[[[60.7218437,56.0921143],[60.7219651,56.0921104],[60.7218997,56.0913314],[60.7217666,56.0913927],[60.7218437,56.0921143]]]}},{"type":"Feature","properties":{"id":845432924,"name":"","housenumber":"","street":""},"geometry":{"type":"Polygon","coordinates":[[[60.7209899,56.0900787],[60.7210284,56.090385],[60.7209591,56.0903432],[60.7209286,56.0901271],[60.7209899,56.0900787]]]}},{"type":"Feature","properties":{"id":845432925,"name":"","housenumber":"","street":""},"geometry":{"type":"Polygon","coordinates":[[[60.7204073,56.0906302],[60.7204901,56.0905673],[60.7204334,56.0900187],[60.7203272,56.089943],[60.7204073,56.0906302]]]}},{"type":"Feature","properties":{"id":845498875,"name":"","housenumber":"","street":""},"geometry":{"type":"Polygon","coordinates":[[[60.7239044,56.0836802],[60.723986,56.0837027],[60.7240105,56.0838918],[60.7239216,56.0838619],[60.7239044,56.0836802]]]}},{"type":"Feature","properties":{"id":845498877,"name":"","housenumber":"","street":""},"geometry":{"type":"Polygon","coordinates":[[[60.7212594,56.0852895],[60.7212501,56.085241],[60.7211917,56.084764],[60.7211855,56.0847157],[60.7210932,56.0839989],[60.7210864,56.0839457],[60.7210294,56.0835029],[60.7208379,56.0835134],[60.7208715,56.0835843],[60.7210414,56.0847375],[60.7208781,56.0848336],[60.7209672,56.0848905],[60.7210372,56.0849096],[60.7210778,56.0851988],[60.7212594,56.0852895]]]}},{"type":"Feature","properties":{"id":845498890,"name":"","housenumber":"","street":""},"geometry":{"type":"Polygon","coordinates":[[[60.7220359,56.0847395],[60.7221013,56.0845227],[60.721862,56.0844849],[60.7218542,56.084508],[60.7217977,56.0846751],[60.7217749,56.0847426],[60.7220359,56.0847395]]]}},{"type":"Feature","properties":{"id":845498891,"name":"","housenumber":"","street":""},"geometry":{"type":"Polygon","coordinates":[[[60.7219665,56.0837721],[60.7217556,56.0837039],[60.7217483,56.0837247],[60.7216785,56.0839234],[60.7216589,56.0839794],[60.7219146,56.0839685],[60.7219665,56.0837721]]]}},{"type":"Feature","properties":{"id":845498892,"name":"","housenumber":"","street":""},"geometry":{"type":"Polygon","coordinates":[[[60.7222216,56.0852834],[60.7219808,56.0852449],[60.7219716,56.0852671],[60.7218972,56.0854462],[60.7221169,56.0855243],[60.7222216,56.0852834]]]}},{"type":"Feature","properties":{"id":845498897,"name":"","housenumber":"","street":""},"geometry":{"type":"Polygon","coordinates":[[[60.7215377,56.0860227],[60.7215457,56.0860683],[60.7218488,56.0860541],[60.7220929,56.0860968],[60.721877,56.0860047],[60.7215377,56.0860227]]]}},{"type":"Feature","properties":{"id":845498930,"name":"","housenumber":"","street":""},"geometry":{"type":"Polygon","coordinates":[[[60.7174158,56.0845567],[60.7174507,56.0848965],[60.717552,56.0848937],[60.7177859,56.0848875],[60.717743,56.0845507],[60.7175152,56.0845549],[60.7174158,56.0845567]]]}},{"type":"Feature","properties":{"id":846019301,"name":"","housenumber":"","street":""},"geometry":{"type":"Polygon","coordinates":[[[60.7280865,56.0837942],[60.7280721,56.0836917],[60.7283463,56.0836815],[60.7283587,56.0837859],[60.7280865,56.0837942]]]}},{"type":"Feature","properties":{"id":846019304,"name":"","housenumber":"","street":""},"geometry":{"type":"Polygon","coordinates":[[[60.7242272,56.0843654],[60.7241692,56.0843668],[60.7241713,56.0844144],[60.72409,56.0844654],[60.7240432,56.0844722],[60.7240391,56.0845255],[60.7242427,56.0845166],[60.7242397,56.0844793],[60.7242272,56.0843654]]]}},{"type":"Feature","properties":{"id":846019313,"name":"","housenumber":"","street":""},"geometry":{"type":"Polygon","coordinates":[[[60.732389,56.0572898],[60.7322582,56.0577474],[60.7307242,56.0577904],[60.7306611,56.057338],[60.732389,56.0572898]]]}},{"type":"Feature","properties":{"id":846019393,"name":"","housenumber":"","street":""},"geometry":{"type":"Polygon","coordinates":[[[60.7245531,56.0903882],[60.7244148,56.0903896],[60.7244006,56.0904676],[60.7245612,56.0904596],[60.7245531,56.0903882]]]}},{"type":"Feature","properties":{"id":846019419,"name":"","housenumber":"","street":""},"geometry":{"type":"Polygon","coordinates":[[[60.7252154,56.0892219],[60.7252393,56.0891781],[60.725533,56.0891564],[60.7255791,56.0891998],[60.725442,56.0892107],[60.7252154,56.0892219]]]}},{"type":"Feature","properties":{"id":846019422,"name":"","housenumber":"","street":""},"geometry":{"type":"Polygon","coordinates":[[[60.7269806,56.0890271],[60.7269593,56.0888306],[60.7270319,56.0888563],[60.7270461,56.0889975],[60.7269806,56.0890271]]]}},{"type":"Feature","properties":{"id":846019428,"name":"","housenumber":"","street":""},"geometry":{"type":"Polygon","coordinates":[[[60.7254965,56.090074],[60.7255425,56.0900187],[60.7267919,56.0899644],[60.7268786,56.0900177],[60.7254965,56.090074]]]}},{"type":"Feature","properties":{"id":846019432,"name":"","housenumber":"","street":""},"geometry":{"type":"Polygon","coordinates":[[[60.7218372,56.0921799],[60.721868,56.0922974],[60.7222315,56.0924635],[60.7225252,56.0924597],[60.7225185,56.0924268],[60.7222865,56.0924291],[60.7219512,56.0922764],[60.7219244,56.0921769],[60.7218372,56.0921799]]]}},{"type":"Feature","properties":{"id":945744697,"name":"","housenumber":"","street":""},"geometry":{"type":"Polygon","coordinates":[[[60.7375529,56.0921479],[60.737502,56.0918195],[60.737587,56.0917971],[60.7376936,56.0917728],[60.7377326,56.0917619],[60.7378024,56.0917813],[60.7378721,56.0918008],[60.7382851,56.0926116],[60.7383675,56.0927629],[60.7380152,56.0929378],[60.7375529,56.0921479]]]}},{"type":"Feature","properties":{"id":1060088552,"name":"","housenumber":"","street":""},"geometry":{"type":"Polygon","coordinates":[[[60.7530561,56.0764546],[60.752973,56.0764082],[60.7529327,56.07601],[60.752289,56.0757046],[60.7522809,56.0756268],[60.7525438,56.0756223],[60.7527208,56.0756238],[60.7528362,56.0756223],[60.7529354,56.0756223],[60.7531044,56.0756178],[60.7531408,56.076055],[60.7531634,56.0763273],[60.7531342,56.0763582],[60.7531124,56.0763812],[60.7531205,56.0764471],[60.7530561,56.0764546]]]}},{"type":"Feature","properties":{"id":1067993188,"name":"","housenumber":"","street":""},"geometry":{"type":"Polygon","coordinates":[[[60.7534301,56.0843263],[60.7534077,56.0841116],[60.7533794,56.0838393],[60.7539305,56.0838214],[60.7539812,56.0843084],[60.7534301,56.0843263]]]}},{"type":"Feature","properties":{"id":1153290698,"name":"","housenumber":"","street":""},"geometry":{"type":"Polygon","coordinates":[[[60.743913,56.0763245],[60.7440785,56.075958],[60.7442357,56.0759628],[60.7442316,56.0760841],[60.7440935,56.0763251],[60.743913,56.0763245]]]}},{"type":"Feature","properties":{"id":1170864396,"name":"","housenumber":"","street":""},"geometry":{"type":"Polygon","coordinates":[[[60.7693261,56.0710354],[60.76931,56.0707851],[60.7692345,56.0707866],[60.7692507,56.0710369],[60.7693261,56.0710354]]]}},{"type":"Feature","properties":{"id":1180002885,"name":"","housenumber":"","street":""},"geometry":{"type":"Polygon","coordinates":[[[60.7628922,56.0747886],[60.7628752,56.0745978],[60.7629524,56.0745956],[60.7629693,56.0747865],[60.7628922,56.0747886]]]}},{"type":"Feature","properties":{"id":1180002886,"name":"","housenumber":"","street":""},"geometry":{"type":"Polygon","coordinates":[[[60.7635948,56.0750377],[60.7637013,56.0750334],[60.7636999,56.0750226],[60.7636765,56.0748424],[60.76357,56.0748467],[60.7635948,56.0750377]]]}},{"type":"Feature","properties":{"id":1180002887,"name":"","housenumber":"","street":""},"geometry":{"type":"Polygon","coordinates":[[[60.7637377,56.0748399],[60.7643922,56.0748134],[60.7643856,56.0747625],[60.7637311,56.074789],[60.7637377,56.0748399]]]}},{"type":"Feature","properties":{"id":1180002888,"name":"","housenumber":"","street":""},"geometry":{"type":"Polygon","coordinates":[[[60.7645542,56.0749676],[60.7644717,56.0749709],[60.764454,56.0748344],[60.7645364,56.074831],[60.7645542,56.0749676]]]}},{"type":"Feature","properties":{"id":1180002889,"name":"","housenumber":"","street":""},"geometry":{"type":"Polygon","coordinates":[[[60.7637414,56.0750209],[60.7637495,56.0750833],[60.7640826,56.0750698],[60.7640745,56.0750074],[60.7637414,56.0750209]]]}},{"type":"Feature","properties":{"id":1180002890,"name":"","housenumber":"","street":""},"geometry":{"type":"Polygon","coordinates":[[[60.7636001,56.0756565],[60.764158,56.0756377],[60.7641277,56.0753568],[60.7632458,56.0753865],[60.7632569,56.0754898],[60.7635809,56.0754789],[60.7636001,56.0756565]]]}},{"type":"Feature","properties":{"id":1180002891,"name":"","housenumber":"","street":""},"geometry":{"type":"Polygon","coordinates":[[[60.7612245,56.074921],[60.762185,56.0748924],[60.7621799,56.0748387],[60.7612194,56.0748672],[60.7612245,56.074921]]]}},{"type":"Feature","properties":{"id":1180002892,"name":"","housenumber":"","street":""},"geometry":{"type":"Polygon","coordinates":[[[60.760967,56.075155],[60.7613682,56.0751429],[60.7613726,56.0751881],[60.7609714,56.0752002],[60.760967,56.075155]]]}},{"type":"Feature","properties":{"id":1180002893,"name":"","housenumber":"","street":""},"geometry":{"type":"Polygon","coordinates":[[[60.7615999,56.0753441],[60.7616817,56.0753421],[60.7616691,56.0751782],[60.7615873,56.0751802],[60.7615999,56.0753441]]]}},{"type":"Feature","properties":{"id":1180002894,"name":"","housenumber":"","street":""},"geometry":{"type":"Polygon","coordinates":[[[60.7619845,56.0753289],[60.7620716,56.0753259],[60.7620489,56.0751238],[60.7619618,56.0751268],[60.7619845,56.0753289]]]}},{"type":"Feature","properties":{"id":1180002895,"name":"","housenumber":"","street":""},"geometry":{"type":"Polygon","coordinates":[[[60.7622132,56.0754975],[60.7621967,56.0753764],[60.7624559,56.0753654],[60.7624724,56.0754865],[60.7622132,56.0754975]]]}},{"type":"Feature","properties":{"id":1180008473,"name":"","housenumber":"","street":""},"geometry":{"type":"Polygon","coordinates":[[[60.7463393,56.0724855],[60.7464512,56.0722696],[60.7465308,56.0722824],[60.7464189,56.0724984],[60.7463393,56.0724855]]]}},{"type":"Feature","properties":{"id":1180008474,"name":"","housenumber":"","street":""},"geometry":{"type":"Polygon","coordinates":[[[60.7462441,56.0722362],[60.7461322,56.0724521],[60.7460494,56.0724387],[60.7461613,56.0722228],[60.7462441,56.0722362]]]}},{"type":"Feature","properties":{"id":1180008478,"name":"","housenumber":"","street":""},"geometry":{"type":"Polygon","coordinates":[[[60.7462803,56.0728673],[60.7474912,56.0728365],[60.7475592,56.0726734],[60.7464851,56.0725051],[60.7462803,56.0728673]]]}},{"type":"Feature","properties":{"id":1180008479,"name":"","housenumber":"","street":""},"geometry":{"type":"Polygon","coordinates":[[[60.7442316,56.0729165],[60.745749,56.0728936],[60.7457463,56.0728382],[60.744229,56.0728611],[60.7442316,56.0729165]]]}},{"type":"Feature","properties":{"id":1180008483,"name":"","housenumber":"","street":""},"geometry":{"type":"Polygon","coordinates":[[[60.74541,56.0723542],[60.7447923,56.0722605],[60.7450031,56.0718275],[60.7458108,56.07195],[60.7458537,56.0718618],[60.7462779,56.0719261],[60.7464267,56.0716203],[60.7458186,56.0715281],[60.7457129,56.0717451],[60.7449584,56.0716307],[60.7446615,56.0722407],[60.744558,56.0724533],[60.7453065,56.0725668],[60.74541,56.0723542]]]}},{"type":"Feature","properties":{"id":1353326161,"name":"","housenumber":"","street":""},"geometry":{"type":"Polygon","coordinates":[[[60.7313101,56.0862978],[60.7313011,56.086215],[60.7317158,56.0862009],[60.7317248,56.0862837],[60.7313101,56.0862978]]]}},{"type":"Feature","properties":{"id":1353326172,"name":"парк","housenumber":"","street":""},"geometry":{"type":"Polygon","coordinates":[[[60.736937,56.088028],[60.7367664,56.0879738],[60.737159,56.0875891],[60.7373297,56.0876433],[60.736937,56.088028]]]}},{"type":"Feature","properties":{"id":1353733566,"name":"","housenumber":"","street":""},"geometry":{"type":"Polygon","coordinates":[[[60.7399704,56.0825725],[60.739965,56.0825326],[60.7411978,56.0824806],[60.7412032,56.0825207],[60.7399704,56.0825725]]]}},{"type":"Feature","properties":{"id":1353733572,"name":"","housenumber":"","street":""},"geometry":{"type":"Polygon","coordinates":[[[60.7321798,56.0861409],[60.7321723,56.0860676],[60.7329363,56.0860432],[60.7329438,56.0861164],[60.7321798,56.0861409]]]}},{"type":"Feature","properties":{"id":1353733579,"name":"","housenumber":"","street":""},"geometry":{"type":"Polygon","coordinates":[[[60.7431393,56.0806445],[60.7433371,56.0806339],[60.7434596,56.0813474],[60.7432616,56.081358],[60.7431393,56.0806445]]]}},{"type":"Feature","properties":{"id":1359624195,"name":"","housenumber":"","street":""},"geometry":{"type":"Polygon","coordinates":[[[60.7334009,56.0874556],[60.7333606,56.0868941],[60.7332668,56.0868986],[60.7331729,56.0870901],[60.7331997,56.0874612],[60.7334009,56.0874556]]]}},{"type":"Feature","properties":{"id":614493923,"name":"","housenumber":"","street":""},"geometry":{"type":"Point","coordinates":[60.7540578,56.072452]}},{"type":"Feature","properties":{"id":614493924,"name":"","housenumber":"","street":""},"geometry":{"type":"Point","coordinates":[60.755666,56.0727799]}},{"type":"Feature","properties":{"id":614515610,"name":"","housenumber":"","street":""},"geometry":{"type":"Point","coordinates":[60.7382271,56.0799136]}},{"type":"Feature","properties":{"id":614515645,"name":"","housenumber":"","street":""},"geometry":{"type":"Point","coordinates":[60.7399055,56.0802794]}},{"type":"Feature","properties":{"id":614515671,"name":"","housenumber":"","street":""},"geometry":{"type":"Point","coordinates":[60.7405142,56.0817081]}},{"type":"Feature","properties":{"id":614515707,"name":"","housenumber":"","street":""},"geometry":{"type":"Point","coordinates":[60.7436516,56.0818582]}},{"type":"Feature","properties":{"id":614945669,"name":"","housenumber":"","street":""},"geometry":{"type":"Point","coordinates":[60.7176201,56.084647]}},{"type":"Feature","properties":{"id":614946270,"name":"","housenumber":"","street":""},"geometry":{"type":"Point","coordinates":[60.7320228,56.0872381]}},{"type":"Feature","properties":{"id":614984343,"name":"","housenumber":"","street":""},"geometry":{"type":"Point","coordinates":[60.7210231,56.0840245]}},{"type":"Feature","properties":{"id":616097167,"name":"","housenumber":"","street":""},"geometry":{"type":"Point","coordinates":[60.7485837,56.0778447]}},{"type":"Feature","properties":{"id":617029717,"name":"","housenumber":"","street":""},"geometry":{"type":"Point","coordinates":[60.7433592,56.0786034]}},{"type":"Feature","properties":{"id":625147841,"name":"","housenumber":"","street":""},"geometry":{"type":"Point","coordinates":[60.7466021,56.074619]}},{"type":"Feature","properties":{"id":631570727,"name":"","housenumber":"","street":""},"geometry":{"type":"Point","coordinates":[60.7437094,56.0776055]}},{"type":"Feature","properties":{"id":737984180,"name":"","housenumber":"","street":""},"geometry":{"type":"Point","coordinates":[60.7369255,56.0919745]}},{"type":"Feature","properties":{"id":737984502,"name":"","housenumber":"","street":""},"geometry":{"type":"Point","coordinates":[60.7218672,56.0917666]}},{"type":"Feature","properties":{"id":764579116,"name":"","housenumber":"","street":""},"geometry":{"type":"Point","coordinates":[60.7364829,56.0838487]}},{"type":"Feature","properties":{"id":896092802,"name":"","housenumber":"","street":""},"geometry":{"type":"Point","coordinates":[60.7710014,56.070481]}},{"type":"Feature","properties":{"id":904459227,"name":"","housenumber":"","street":""},"geometry":{"type":"Point","coordinates":[60.7360302,56.0601649]}},{"type":"Feature","properties":{"id":923276889,"name":"","housenumber":"","street":""},"geometry":{"type":"Point","coordinates":[60.7377641,56.0891262]}},{"type":"Feature","properties":{"id":929037615,"name":"","housenumber":"","street":""},"geometry":{"type":"Point","coordinates":[60.7596428,56.0745512]}},{"type":"Feature","properties":{"id":929356315,"name":"","housenumber":"","street":""},"geometry":{"type":"Point","coordinates":[60.7348391,56.0891488]}},{"type":"Feature","properties":{"id":929356530,"name":"","housenumber":"","street":""},"geometry":{"type":"Point","coordinates":[60.7353899,56.0898527]}},{"type":"Feature","properties":{"id":951471260,"name":"","housenumber":"","street":""},"geometry":{"type":"Point","coordinates":[60.7482709,56.0784608]}},{"type":"Feature","properties":{"id":951471337,"name":"","housenumber":"","street":""},"geometry":{"type":"Point","coordinates":[60.7450262,56.0763557]}},{"type":"Feature","properties":{"id":962043601,"name":"","housenumber":"","street":""},"geometry":{"type":"Point","coordinates":[60.7339424,56.0920021]}},{"type":"Feature","properties":{"id":962043878,"name":"","housenumber":"","street":""},"geometry":{"type":"Point","coordinates":[60.7326933,56.0920357]}},{"type":"Feature","properties":{"id":984397475,"name":"","housenumber":"","street":""},"geometry":{"type":"Point","coordinates":[60.7500209,56.075951]}},{"type":"Feature","properties":{"id":984397500,"name":"","housenumber":"","street":""},"geometry":{"type":"Point","coordinates":[60.744936,56.07833]}},{"type":"Feature","properties":{"id":984397556,"name":"","housenumber":"","street":""},"geometry":{"type":"Point","coordinates":[60.7329189,56.0805144]}},{"type":"Feature","properties":{"id":1048637187,"name":"","housenumber":"","street":""},"geometry":{"type":"Point","coordinates":[60.7205862,56.0895573]}},{"type":"Feature","properties":{"id":1048637273,"name":"","housenumber":"","street":""},"geometry":{"type":"Point","coordinates":[60.7214196,56.088605]}},{"type":"Feature","properties":{"id":1048637324,"name":"","housenumber":"","street":""},"geometry":{"type":"Point","coordinates":[60.7207811,56.0878988]}},{"type":"Feature","properties":{"id":1048637400,"name":"","housenumber":"","street":""},"geometry":{"type":"Point","coordinates":[60.7207418,56.0909508]}},{"type":"Feature","properties":{"id":1048637520,"name":"","housenumber":"","street":""},"geometry":{"type":"Point","coordinates":[60.7230851,56.0855978]}},{"type":"Feature","properties":{"id":1048637698,"name":"","housenumber":"","street":""},"geometry":{"type":"Point","coordinates":[60.72102,56.0843681]}},{"type":"Feature","properties":{"id":1198311609,"name":"","housenumber":"","street":""},"geometry":{"type":"Point","coordinates":[60.7460725,56.0505706]}},{"type":"Feature","properties":{"id":1458570878,"name":"","housenumber":"","street":""},"geometry":{"type":"Point","coordinates":[60.7695203,56.0673879]}},{"type":"Feature","properties":{"id":1496629427,"name":"","housenumber":"","street":""},"geometry":{"type":"Point","coordinates":[60.756201,56.0725392]}},{"type":"Feature","properties":{"id":1496629435,"name":"","housenumber":"","street":""},"geometry":{"type":"Point","coordinates":[60.7556194,56.0732064]}},{"type":"Feature","properties":{"id":1496629450,"name":"","housenumber":"","street":""},"geometry":{"type":"Point","coordinates":[60.7540568,56.0761158]}},{"type":"Feature","properties":{"id":1496629455,"name":"","housenumber":"","street":""},"geometry":{"type":"Point","coordinates":[60.7545792,56.0810018]}},{"type":"Feature","properties":{"id":1638775143,"name":"","housenumber":"","street":""},"geometry":{"type":"Point","coordinates":[60.7311871,56.0744675]}},{"type":"Feature","properties":{"id":1755774867,"name":"","housenumber":"","street":""},"geometry":{"type":"Point","coordinates":[60.739042,56.0735818]}},{"type":"Feature","properties":{"id":1859120811,"name":"","housenumber":"","street":""},"geometry":{"type":"Point","coordinates":[60.7553548,56.0774768]}},{"type":"Feature","properties":{"id":1859120818,"name":"","housenumber":"","street":""},"geometry":{"type":"Point","coordinates":[60.7645199,56.0775491]}},{"type":"Feature","properties":{"id":1859120822,"name":"","housenumber":"","street":""},"geometry":{"type":"Point","coordinates":[60.7613144,56.0776035]}},{"type":"Feature","properties":{"id":1859120873,"name":"","housenumber":"","street":""},"geometry":{"type":"Point","coordinates":[60.7633297,56.077784]}},{"type":"Feature","properties":{"id":1859120933,"name":"","housenumber":"","street":""},"geometry":{"type":"Point","coordinates":[60.7617729,56.0778207]}},{"type":"Feature","properties":{"id":1859120990,"name":"","housenumber":"","street":""},"geometry":{"type":"Point","coordinates":[60.7598878,56.0778795]}},{"type":"Feature","properties":{"id":1859121036,"name":"","housenumber":"","street":""},"geometry":{"type":"Point","coordinates":[60.758125,56.0779196]}},{"type":"Feature","properties":{"id":1859121071,"name":"","housenumber":"","street":""},"geometry":{"type":"Point","coordinates":[60.756478,56.0779829]}},{"type":"Feature","properties":{"id":1859121115,"name":"","housenumber":"","street":""},"geometry":{"type":"Point","coordinates":[60.7526547,56.0781207]}},{"type":"Feature","properties":{"id":1859121125,"name":"","housenumber":"","street":""},"geometry":{"type":"Point","coordinates":[60.7505941,56.0781658]}},{"type":"Feature","properties":{"id":1859121188,"name":"","housenumber":"","street":""},"geometry":{"type":"Point","coordinates":[60.7370063,56.0803442]}},{"type":"Feature","properties":{"id":1899569272,"name":"","housenumber":"","street":""},"geometry":{"type":"Point","coordinates":[60.7471419,56.0731843]}},{"type":"Feature","properties":{"id":2007106763,"name":"","housenumber":"","street":""},"geometry":{"type":"Point","coordinates":[60.7578604,56.07403]}},{"type":"Feature","properties":{"id":2526306382,"name":"","housenumber":"","street":""},"geometry":{"type":"Point","coordinates":[60.7537781,56.0710944]}},{"type":"Feature","properties":{"id":2526306383,"name":"","housenumber":"","street":""},"geometry":{"type":"Point","coordinates":[60.7529036,56.0737336]}},{"type":"Feature","properties":{"id":2526306384,"name":"","housenumber":"","street":""},"geometry":{"type":"Point","coordinates":[60.7529653,56.0744202]}},{"type":"Feature","properties":{"id":2526306385,"name":"","housenumber":"","street":""},"geometry":{"type":"Point","coordinates":[60.7489485,56.0759853]}},{"type":"Feature","properties":{"id":2607532768,"name":"","housenumber":"","street":""},"geometry":{"type":"Point","coordinates":[60.7548361,56.0768731]}},{"type":"Feature","properties":{"id":2607532772,"name":"","housenumber":"","street":""},"geometry":{"type":"Point","coordinates":[60.7541265,56.0769247]}},{"type":"Feature","properties":{"id":2607532783,"name":"","housenumber":"","street":""},"geometry":{"type":"Point","coordinates":[60.7464233,56.0821318]}},{"type":"Feature","properties":{"id":2607532792,"name":"","housenumber":"","street":""},"geometry":{"type":"Point","coordinates":[60.764987,56.0824793]}},{"type":"Feature","properties":{"id":2915489406,"name":"","housenumber":"","street":""},"geometry":{"type":"Point","coordinates":[60.7519996,56.0720042]}},{"type":"Feature","properties":{"id":2915489407,"name":"","housenumber":"","street":""},"geometry":{"type":"Point","coordinates":[60.7506593,56.0720706]}},{"type":"Feature","properties":{"id":2915489413,"name":"","housenumber":"","street":""},"geometry":{"type":"Point","coordinates":[60.7511743,56.0727449]}},{"type":"Feature","properties":{"id":2915489420,"name":"","housenumber":"","street":""},"geometry":{"type":"Point","coordinates":[60.7591433,56.0748969]}},{"type":"Feature","properties":{"id":3710158721,"name":"","housenumber":"","street":"проспект Щёлкина"},"geometry":{"type":"Point","coordinates":[60.7202663,56.080902]}},{"type":"Feature","properties":{"id":3711114922,"name":"","housenumber":"","street":""},"geometry":{"type":"Point","coordinates":[60.7210689,56.0816474]}},{"type":"Feature","properties":{"id":3711322022,"name":"","housenumber":"","street":""},"geometry":{"type":"Point","coordinates":[60.7232466,56.0787715]}},{"type":"Feature","properties":{"id":3711322024,"name":"","housenumber":"","street":""},"geometry":{"type":"Point","coordinates":[60.7221953,56.0795042]}},{"type":"Feature","properties":{"id":3711323125,"name":"","housenumber":"","street":""},"geometry":{"type":"Point","coordinates":[60.7208192,56.0796674]}},{"type":"Feature","properties":{"id":3711323126,"name":"","housenumber":"","street":""},"geometry":{"type":"Point","coordinates":[60.7234547,56.0802432]}},{"type":"Feature","properties":{"id":3711323127,"name":"","housenumber":"","street":""},"geometry":{"type":"Point","coordinates":[60.7201189,56.0824336]}},{"type":"Feature","properties":{"id":180105077,"name":"","housenumber":"","street":""},"geometry":{"type":"Polygon","coordinates":[[[60.8327094,56.0772651],[60.8328739,56.0770509],[60.8322428,56.0769067],[60.8320787,56.0771028],[60.8324917,56.0772091],[60.8327094,56.0772651]]]}}]}
