{"type":"FeatureCollection","features":[{"type":"Feature","properties":{"id":635983297,"place":"village","name":"Воздвиженка","population":"381"},"geometry":{"type":"Point","coordinates":[60.7762643,56.1264207]}},{"type":"Feature","properties":{"id":629412888,"place":"village","name":"Воскресенское","population":""},"geometry":{"type":"Point","coordinates":[60.834003,56.067772]}},{"type":"Feature","properties":{"id":665219043,"place":"village","name":"Ближний Береговой","population":""},"geometry":{"type":"Point","coordinates":[60.781853,56.010853]}},{"type":"Feature","properties":{"id":635983300,"place":"village","name":"Знаменка","population":""},"geometry":{"type":"Point","coordinates":[60.8852406,56.1147049]}}]}
