{"type":"FeatureCollection","features":[{"type":"Feature","properties":{"id":48580257,"railway":"rail"},"geometry":{"type":"LineString","coordinates":[[60.729078,56.057174],[60.7354111,56.0569581],[60.7358139,56.0569418],[60.736594,56.056817],[60.7375476,56.0565105],[60.7381284,56.0561638],[60.7436453,56.0518718],[60.7415811,56.0532249],[60.7402523,56.0536814],[60.7395984,56.0541026],[60.73911,56.0544712],[60.7370052,56.0560599]]}},{"type":"Feature","properties":{"id":48580259,"railway":"rail"},"geometry":{"type":"LineString","coordinates":[[60.7231838,56.0535535],[60.7245104,56.0535661],[60.7350944,56.0536056],[60.7384531,56.0536209],[60.7395737,56.0535685],[60.74024,56.0534867],[60.7408708,56.0533648],[60.7415108,56.0531413],[60.7419437,56.052923],[60.7436453,56.0518718],[60.7536497,56.0435136],[60.7537798,56.0434072],[60.7549571,56.0425396],[60.7556663,56.0422272],[60.7565119,56.0419606],[60.7584486,56.0416254],[60.7607399,56.0413511],[60.7637268,56.0409702],[60.7649407,56.0406807],[60.7736746,56.0379213],[60.7743105,56.0377245],[60.7752243,56.0372368],[60.7756657,56.0370005],[60.776861,56.0363606],[60.7784158,56.0355529],[60.7805871,56.0342187],[60.7813754,56.033671],[60.7822558,56.0329509],[60.7835432,56.0317924],[60.7846184,56.030632],[60.7852836,56.0298936],[60.786659,56.0282683],[60.7913391,56.0227915],[60.7920115,56.0219914],[60.7938767,56.019772],[60.7942013,56.0192597],[60.7944625,56.0187501],[60.7948728,56.0177293],[60.7951359,56.0170186],[60.7953998,56.0164668],[60.7976895,56.0112418],[60.7984063,56.010407],[60.7992388,56.0096202],[60.8002255,56.0086838],[60.8009287,56.0078523],[60.8012359,56.0071102],[60.8012844,56.0067029],[60.801259,56.0063803],[60.8012917,56.0060173],[60.8011052,56.0054535],[60.7997802,56.0030301],[60.79469,55.9936876],[60.7943311,55.9931218],[60.7827495,55.9824691],[60.7703702,55.9722158],[60.7696116,55.9715753],[60.7692114,55.9711457],[60.7688392,55.9706136],[60.767564,55.9673201],[60.7667407,55.964689],[60.7657983,55.9619105],[60.7654244,55.9608967],[60.7650694,55.9597581],[60.7644828,55.9583498],[60.7640682,55.9576186],[60.7629563,55.9564249],[60.7617469,55.955579],[60.7611607,55.955201],[60.7604343,55.9548596],[60.7580466,55.9538941],[60.7512586,55.9515841],[60.7501901,55.9511556],[60.7494208,55.9509402],[60.7484592,55.9507607],[60.7474334,55.950677],[60.7360342,55.9501446],[60.7350981,55.9500803],[60.7342457,55.9499157],[60.7334765,55.9497427],[60.7326943,55.9494994],[60.7275359,55.9473085],[60.7265365,55.9468405],[60.7261626,55.9465975],[60.7255527,55.946286],[60.725072,55.94583],[60.7246643,55.9453659],[60.724417,55.9448933],[60.7242781,55.9442727],[60.724262,55.9434258],[60.7242298,55.942305]]}},{"type":"Feature","properties":{"id":48580265,"railway":"rail"},"geometry":{"type":"LineString","coordinates":[[60.7231838,56.0535535],[60.7108771,56.0535631],[60.7064226,56.0536111],[60.7052292,56.0535397],[60.7035883,56.0533969],[60.7024162,56.0531708],[60.7013933,56.0528614],[60.7001359,56.0523497],[60.6990704,56.0518856],[60.6955541,56.049422],[60.692525,56.0468914],[60.6899236,56.0450752],[60.6890876,56.0446762],[60.688086,56.044462],[60.6864025,56.0441882],[60.684996,56.0440692],[60.6837173,56.0439977],[60.6822256,56.0439263],[60.6805634,56.0439501],[60.679924,56.043962],[60.6792634,56.0439263],[60.6786241,56.0438073],[60.6779208,56.0435216],[60.677111,56.0431645],[60.6756619,56.0426884],[60.6745751,56.0422122],[60.6735095,56.041867],[60.6726145,56.0416765],[60.6715703,56.041617],[60.6706539,56.0416646],[60.6698228,56.0418075],[60.669013,56.042117],[60.6682458,56.0425336],[60.6673294,56.0431883],[60.6622508,56.0482956],[60.6613116,56.0492981],[60.6606008,56.0498096],[60.6600569,56.0501043],[60.6590877,56.0504665],[60.6578683,56.0506655],[60.6572206,56.0509277],[60.6567388,56.0512222],[60.6560142,56.0516873],[60.6532968,56.0526662],[60.65263,56.0529895],[60.6521191,56.0533488],[60.6501869,56.0550678],[60.6481658,56.0568048],[60.647424,56.0573477],[60.6461169,56.0578855],[60.6415517,56.0595007],[60.6402503,56.0599497],[60.6393519,56.0601369],[60.6383581,56.0601988],[60.6275515,56.0606021],[60.6258349,56.060626],[60.6245474,56.0608417],[60.6236923,56.0612616],[60.621715,56.0626147]]}},{"type":"Feature","properties":{"id":48671197,"railway":"rail"},"geometry":{"type":"LineString","coordinates":[[60.7436453,56.0518718],[60.7378459,56.0567214],[60.7377725,56.0568389],[60.737756,56.0569429],[60.7377577,56.0571421],[60.7377751,56.0571674],[60.7389541,56.0646162]]}},{"type":"Feature","properties":{"id":51383215,"railway":"rail"},"geometry":{"type":"LineString","coordinates":[[60.7743105,56.0377245],[60.7737738,56.0381858],[60.7734774,56.0384406],[60.773065,56.0392934],[60.773057,56.0395397],[60.7730876,56.0403485],[60.7733976,56.0449094],[60.7736109,56.0471851],[60.7739793,56.0505265],[60.7743655,56.0539813],[60.7744611,56.054915],[60.7749372,56.058523]]}},{"type":"Feature","properties":{"id":76776544,"railway":"rail"},"geometry":{"type":"LineString","coordinates":[[60.7399282,56.0716649],[60.7398503,56.0715563],[60.7397263,56.0714489],[60.7391855,56.0710308],[60.7388597,56.0707184],[60.7386508,56.070448],[60.7386022,56.0702903],[60.7385225,56.0694368]]}},{"type":"Feature","properties":{"id":97195650,"railway":"rail"},"geometry":{"type":"LineString","coordinates":[[60.7108771,56.0535631],[60.712209,56.0532157],[60.7127883,56.0529761],[60.7132604,56.0526046],[60.7134964,56.0522691],[60.713475,56.0518018],[60.7131316,56.0501841]]}},{"type":"Feature","properties":{"id":151032726,"railway":"rail"},"geometry":{"type":"LineString","coordinates":[[60.7733976,56.0449094],[60.7735747,56.0455092],[60.7737403,56.0458316],[60.7740342,56.046133],[60.7745685,56.0464851],[60.7749159,56.0466582],[60.7750922,56.0468343],[60.7753487,56.0471417],[60.775525,56.0475177],[60.7755891,56.0479325],[60.7757441,56.04935]]}},{"type":"Feature","properties":{"id":200790436,"railway":"rail"},"geometry":{"type":"LineString","coordinates":[[60.771069,56.0441358],[60.7708307,56.0435904],[60.7706964,56.0433904],[60.7705576,56.0432491],[60.770421,56.0431203],[60.7701076,56.0428952],[60.7693823,56.0424963],[60.7691562,56.0423625],[60.7687645,56.0420624],[60.7680123,56.0414222]]}},{"type":"Feature","properties":{"id":200790450,"railway":"rail"},"geometry":{"type":"LineString","coordinates":[[60.7730876,56.0403485],[60.7730527,56.040878],[60.7728779,56.0412358],[60.7726236,56.0415073],[60.7722266,56.0419148],[60.771422,56.0426519],[60.7711645,56.0429815],[60.7710647,56.0432734],[60.7710218,56.0436629],[60.7710572,56.0440243],[60.771069,56.0441358],[60.77129,56.0462277],[60.7714938,56.0481332],[60.7715689,56.0491698],[60.771526,56.0495413],[60.7714724,56.0501585],[60.7714938,56.0508355],[60.7715153,56.0515545]]}},{"type":"Feature","properties":{"id":287996783,"railway":"rail"},"geometry":{"type":"LineString","coordinates":[[60.7390609,56.0653298],[60.7395854,56.0692362],[60.7399282,56.0716649],[60.7400661,56.0726416],[60.7407232,56.0772938]]}},{"type":"Feature","properties":{"id":561597956,"railway":"rail"},"geometry":{"type":"LineString","coordinates":[[60.7189383,56.0517661],[60.7192313,56.0522273],[60.7196575,56.0526289],[60.7203235,56.0528967],[60.7211226,56.0531644],[60.7219484,56.0533578],[60.7231838,56.0535535]]}}]}
