{"type":"FeatureCollection","features":[{"type":"Feature","properties":{"id":50490850,"natural":"water"},"geometry":{"type":"Polygon","coordinates":[[[60.7316195,56.0864252],[60.7315806,56.0863864],[60.7315039,56.0863742],[60.7314343,56.0863959],[60.7314125,56.0864388],[60.7314514,56.0864776],[60.7315282,56.0864897],[60.7315978,56.086468],[60.7316195,56.0864252]]]}},{"type":"Feature","properties":{"id":200802324,"natural":"water"},"geometry":{"type":"Polygon","coordinates":[[[60.7776707,56.0896848],[60.7776994,56.0898211],[60.7777662,56.0897961],[60.777911,56.0897235],[60.7777887,56.0895591],[60.7779354,56.0894021],[60.7777691,56.0892585],[60.7776136,56.0892525],[60.7774741,56.0893453],[60.7772595,56.0893662],[60.7772702,56.0895638],[60.7775009,56.0895608],[60.7776707,56.0896848]]]}},{"type":"Feature","properties":{"id":200802326,"natural":"water"},"geometry":{"type":"Polygon","coordinates":[[[60.7776082,56.0891238],[60.7777638,56.0891298],[60.7777423,56.088618],[60.7777423,56.0882948],[60.7776458,56.0880464],[60.7775707,56.0878638],[60.7775492,56.0880583],[60.7775867,56.0882888],[60.7775867,56.0885821],[60.7775814,56.0887916],[60.7776082,56.0889562],[60.7776082,56.0891238]]]}},{"type":"Feature","properties":{"id":202129144,"natural":"water"},"geometry":{"type":"Polygon","coordinates":[[[60.740808,56.0380888],[60.7406387,56.038117],[60.7405403,56.0379323],[60.7407096,56.0379041],[60.740808,56.0380888]]]}},{"type":"Feature","properties":{"id":202129145,"natural":"water"},"geometry":{"type":"Polygon","coordinates":[[[60.7416165,56.0378136],[60.741638,56.0378136],[60.741654,56.0378092],[60.7416782,56.0377972],[60.7416782,56.0377897],[60.7417105,56.0377715],[60.7417104,56.0377582],[60.7417103,56.0377502],[60.7416341,56.0377726],[60.7415952,56.0377882],[60.7415468,56.0377852],[60.7415521,56.0378017],[60.7415897,56.0378121],[60.7416165,56.0378136]]]}},{"type":"Feature","properties":{"id":440803173,"natural":"water"},"geometry":{"type":"Polygon","coordinates":[[[60.7998403,56.0583955],[60.7997116,56.0583655],[60.7994541,56.0583775],[60.7991751,56.0585273],[60.7991322,56.0588717],[60.799202,56.0590814],[60.7991429,56.059312],[60.7992502,56.0595396],[60.7996418,56.0597103],[60.7998725,56.0597193],[60.8000817,56.0596624],[60.8001246,56.0594588],[60.8000549,56.0590364],[60.8002266,56.0587669],[60.8010259,56.0586051],[60.8010956,56.0585572],[60.8008649,56.0585153],[60.8005001,56.0585243],[60.7998403,56.0583955]]]}},{"type":"Feature","properties":{"id":"rel2379978","natural":"water","name":"Синара"},"geometry":{"type":"Polygon","coordinates":[[[60.7210313,56.0948059],[60.720172,56.0945645],[60.7196093,56.0938296],[60.718837,56.0934053],[60.7180631,56.0932766],[60.7157693,56.0934679],[60.7136099,56.0932971],[60.7122956,56.0930185],[60.7110525,56.0930303],[60.7102038,56.0927479],[60.7089866,56.0922009],[60.7082001,56.0920345],[60.7074926,56.0921541],[60.7073215,56.092183],[60.7061381,56.0926288],[60.7050995,56.0930795],[60.7038539,56.0934805],[60.7025332,56.093924],[60.7021032,56.0942365],[60.7013073,56.0948148],[60.7009646,56.0952748],[60.7009699,56.0957416],[60.7014463,56.0963227],[60.7016244,56.0969983],[60.7029699,56.0984916],[60.7044611,56.0994279],[60.7053334,56.0998306],[60.706564,56.1001322],[60.7073869,56.1003991],[60.7083862,56.1000894],[60.7085249,56.1000879],[60.7086441,56.1000855],[60.7093654,56.1000283],[60.7095568,56.0999904],[60.7097246,56.0999695],[60.7098813,56.099944],[60.7099701,56.0999556],[60.7100353,56.0999958],[60.7098092,56.100142],[60.709597,56.1001799],[60.7093598,56.1001807],[60.7091337,56.1001745],[60.7089215,56.1001815],[60.7086497,56.1001521],[60.7085138,56.1001405],[60.7078116,56.1004108],[60.7075651,56.1005917],[60.7072075,56.1008965],[60.7066219,56.1017485],[60.7063741,56.102275],[60.7062199,56.1029916],[60.7062904,56.1032473],[60.7064771,56.1034173],[60.7071205,56.1036],[60.7094699,56.1039915],[60.7099699,56.1042416],[60.7100305,56.1046893],[60.7098138,56.1054001],[60.7094855,56.1058465],[60.7086701,56.1063472],[60.708139,56.1068498],[60.7076562,56.1075468],[60.7074781,56.1080081],[60.7077198,56.1087416],[60.7102198,56.1099916],[60.7106243,56.1101109],[60.7111415,56.1101944],[60.7114713,56.110168],[60.7117745,56.110148],[60.7120926,56.1100819],[60.7123254,56.1098773],[60.7123206,56.1096988],[60.7121076,56.1095809],[60.712121,56.1094466],[60.7123758,56.1093748],[60.7126987,56.1093928],[60.712967,56.1095127],[60.7128881,56.1097625],[60.7128174,56.1100771],[60.7129698,56.1109916],[60.7131338,56.1112269],[60.7135705,56.1113693],[60.7142198,56.1114916],[60.7144588,56.1116125],[60.7145479,56.111856],[60.7143456,56.1121228],[60.7139589,56.112343],[60.7138553,56.1126809],[60.713828,56.1132109],[60.7140533,56.113749],[60.7138913,56.1140104],[60.7130426,56.1142449],[60.7127336,56.1144028],[60.7127138,56.1147515],[60.712784,56.1153814],[60.7136799,56.1163309],[60.7143462,56.1165262],[60.7149051,56.1165804],[60.715419,56.1166231],[60.7156068,56.1166832],[60.7157709,56.1168047],[60.7161019,56.1169054],[60.7168884,56.1170382],[60.717008,56.1171943],[60.7168916,56.1173621],[60.7166405,56.1176366],[60.7161658,56.1183735],[60.7160236,56.1188251],[60.7162198,56.1192416],[60.7164715,56.1196627],[60.7165858,56.1199208],[60.7165552,56.1200865],[60.716294,56.1202515],[60.7159394,56.1203284],[60.7152436,56.120314],[60.7145033,56.1201274],[60.7136429,56.12012],[60.7124761,56.1201884],[60.7115679,56.1203502],[60.7110717,56.1205637],[60.7107627,56.1210395],[60.7104183,56.1217147],[60.7095294,56.1220897],[60.7063537,56.1222258],[60.7029704,56.1215069],[60.7019844,56.121486],[60.7000883,56.1219874],[60.6992055,56.1227358],[60.698485,56.1235251],[60.6985765,56.1239768],[60.6985928,56.1241862],[60.6988565,56.1245048],[60.6993892,56.1250783],[60.7000067,56.1257191],[60.7009866,56.1267368],[60.7012546,56.1271189],[60.7015611,56.1271792],[60.7016427,56.1274657],[60.7015901,56.1277171],[60.7016839,56.1280544],[60.7012579,56.128761],[60.7013293,56.1290831],[60.701477,56.1297023],[60.7009559,56.1300812],[60.7004698,56.1302416],[60.7007199,56.1304916],[60.7013792,56.1313056],[60.7020079,56.1318452],[60.7029,56.1322294],[60.7039969,56.1327013],[60.7049698,56.1327415],[60.7052199,56.1329916],[60.7054541,56.1335004],[60.7043208,56.1344916],[60.7039146,56.1353139],[60.7030451,56.1359131],[60.7025131,56.1362278],[60.7017295,56.1365117],[60.7004698,56.1372415],[60.6999699,56.1377416],[60.6992198,56.1394916],[60.6997199,56.1404915],[60.6997199,56.1412416],[60.6993555,56.141826],[60.6983153,56.1421059],[60.6989699,56.1427416],[60.6987199,56.1432416],[60.6994699,56.1447416],[60.6996588,56.1470841],[60.7008962,56.1476509],[60.7024483,56.1479537],[60.7032113,56.1479208],[60.7037353,56.1481339],[60.7042748,56.1480029],[60.7068218,56.1478461],[60.7075303,56.1476549],[60.7086502,56.1471092],[60.7097198,56.1467416],[60.7106126,56.146641],[60.7115275,56.1467987],[60.7127145,56.1469078],[60.7137912,56.1469361],[60.7160203,56.1464059],[60.7183207,56.1464468],[60.7197521,56.1462983],[60.7211101,56.1454502],[60.7216905,56.1451505],[60.7224125,56.1449297],[60.7228938,56.1446852],[60.7231969,56.1441895],[60.7233471,56.1436306],[60.7233685,56.1430807],[60.723331,56.1427071],[60.7232585,56.1424053],[60.7231121,56.1421597],[60.7222308,56.1417308],[60.7218359,56.1414557],[60.7218948,56.1404994],[60.7215762,56.1396351],[60.726063,56.1383012],[60.7271604,56.1380202],[60.7278798,56.1378741],[60.7282285,56.1376738],[60.7286927,56.1371354],[60.7292781,56.1365057],[60.7297253,56.1361251],[60.7297329,56.1356559],[60.7296719,56.1355924],[60.7299159,56.1354678],[60.7299484,56.135384],[60.7299199,56.1352526],[60.7299768,56.1351756],[60.7301395,56.135094],[60.7302289,56.1350354],[60.730346,56.1350457],[60.7304138,56.1351401],[60.7304972,56.135239],[60.7306517,56.1352889],[60.7310405,56.1354109],[60.73118,56.1355284],[60.7311977,56.1356507],[60.7312473,56.1357592],[60.7314156,56.1358514],[60.7315305,56.1359521],[60.7317663,56.1360158],[60.732391,56.1361536],[60.7330316,56.1362522],[60.7342526,56.1366545],[60.734879,56.1367709],[60.7356258,56.13683],[60.7362876,56.1368458],[60.7369388,56.1367906],[60.7372326,56.1367985],[60.7374272,56.1367788],[60.7376431,56.1367472],[60.7378307,56.1366999],[60.7379263,56.1366545],[60.7379475,56.1366092],[60.73799,56.1365954],[60.7381669,56.1366565],[60.7383651,56.1367886],[60.7385067,56.1368675],[60.7387014,56.1368971],[60.7387261,56.1369681],[60.7388394,56.1370194],[60.7389279,56.1370233],[60.7390624,56.1370272],[60.7391968,56.1370765],[60.7392747,56.1371397],[60.740117,56.1371397],[60.7410416,56.137061],[60.7416531,56.1369593],[60.7423693,56.1367486],[60.7430326,56.1365029],[60.7434564,56.1363221],[60.7438802,56.1360964],[60.7443845,56.135923],[60.7449477,56.1356555],[60.745275,56.1354418],[60.7455539,56.1352113],[60.7456853,56.135107],[60.7459965,56.1348918],[60.7463237,56.1346317],[60.7466027,56.1343626],[60.7469192,56.1340159],[60.7471391,56.133696],[60.7473966,56.1333463],[60.7476219,56.1329576],[60.7478633,56.1325511],[60.7480242,56.1319263],[60.7480993,56.1315287],[60.7480779,56.1313373],[60.7479759,56.1310474],[60.7479062,56.1307335],[60.7477775,56.1303627],[60.7474019,56.1301535],[60.7470663,56.129886],[60.7466719,56.1294739],[60.7461296,56.1291511],[60.7457722,56.1290206],[60.7457599,56.1288282],[60.7463145,56.1281894],[60.748191,56.1272177],[60.7484335,56.1269916],[60.7486438,56.1262786],[60.74853,56.1255932],[60.7480622,56.1237404],[60.7512198,56.1237416],[60.7522199,56.1239916],[60.7554699,56.1239916],[60.7572198,56.1234915],[60.7599699,56.1237416],[60.7604698,56.1237416],[60.7617198,56.1252416],[60.7619699,56.1254915],[60.7704699,56.1252416],[60.7717199,56.1247415],[60.7727198,56.1247415],[60.7767198,56.1227416],[60.7774699,56.1229915],[60.7782199,56.1227416],[60.7792198,56.1222415],[60.7804508,56.1207964],[60.7802647,56.1206295],[60.7804508,56.1204952],[60.7806735,56.1205502],[60.7809911,56.1200252],[60.7810276,56.1197342],[60.7812798,56.1193856],[60.7819698,56.1192416],[60.782495,56.1192641],[60.7828126,56.1192275],[60.7831521,56.1194066],[60.7835573,56.1195022],[60.7839077,56.1195205],[60.7841413,56.1194676],[60.7842143,56.1194086],[60.784207,56.1192906],[60.7843677,56.1192702],[60.7847984,56.1192601],[60.7852745,56.1191683],[60.7857819,56.118847],[60.7859592,56.1187452],[60.7861563,56.118788],[60.786755,56.1184909],[60.7871383,56.118037],[60.7874812,56.1178216],[60.7880958,56.1169874],[60.7887199,56.1157415],[60.7888092,56.1152881],[60.7889511,56.1142136],[60.7888893,56.1135683],[60.7884562,56.113137],[60.7883151,56.1128149],[60.7880076,56.112598],[60.7879003,56.1124184],[60.7887191,56.1121236],[60.789779,56.111483],[60.7908925,56.1114121],[60.7917198,56.1114916],[60.7937198,56.1109916],[60.794619,56.109687],[60.7950052,56.1087298],[60.7949838,56.1074735],[60.7947906,56.1067555],[60.7943029,56.1049916],[60.7937198,56.1039915],[60.7934699,56.1037416],[60.7933407,56.1032415],[60.7929065,56.1019889],[60.792712,56.1013721],[60.7926101,56.1007415],[60.7924445,56.1003372],[60.792033,56.0996983],[60.791727,56.0993473],[60.7898756,56.0971445],[60.7878029,56.0950338],[60.783669,56.0918678],[60.7832211,56.0914985],[60.7824213,56.0909984],[60.7801177,56.0898199],[60.7792363,56.0894889],[60.7786988,56.0895126],[60.778091,56.0896332],[60.777911,56.0897235],[60.7777662,56.0897961],[60.7776994,56.0898211],[60.7775285,56.0898849],[60.7774985,56.0899408],[60.777587,56.0900261],[60.7775312,56.0900638],[60.7770197,56.0901995],[60.7763671,56.0900645],[60.7761328,56.089935],[60.7761303,56.0898298],[60.7755433,56.0896094],[60.7750574,56.089556],[60.7746401,56.0896122],[60.7744065,56.0895678],[60.7740849,56.0894258],[60.7723614,56.0881074],[60.7715282,56.0876774],[60.7711366,56.0875505],[60.7707238,56.0875625],[60.7702944,56.0875014],[60.7700096,56.0872899],[60.7699699,56.0867416],[60.7696828,56.0864371],[60.7689838,56.0861138],[60.7673976,56.0856783],[60.7663236,56.0854287],[60.7652454,56.0852599],[60.7646274,56.0852165],[60.7632286,56.0853664],[60.7627337,56.0854616],[60.7623202,56.0856776],[60.7618555,56.0861861],[60.7617198,56.0864915],[60.7615661,56.0870118],[60.761181,56.0872878],[60.7605855,56.0874413],[60.760021,56.0874133],[60.7595139,56.0872524],[60.7590954,56.0867416],[60.7581098,56.0859598],[60.7570596,56.0855904],[60.7560172,56.0853456],[60.7536921,56.0850186],[60.7509651,56.0847333],[60.7492645,56.0846271],[60.7479741,56.0846168],[60.7468361,56.0846682],[60.7458498,56.0847991],[60.7454184,56.0849826],[60.7451259,56.0857523],[60.7441696,56.0867438],[60.7439325,56.0870961],[60.7437678,56.0874424],[60.7434449,56.0878964],[60.7429836,56.0886396],[60.7427198,56.0889915],[60.7429122,56.0892277],[60.7427647,56.0895378],[60.7426277,56.0896071],[60.7422424,56.0896151],[60.7413161,56.0898202],[60.7407199,56.0902415],[60.7405725,56.0905485],[60.7409475,56.0908346],[60.7406141,56.0909348],[60.7403513,56.0909062],[60.7399282,56.0910778],[60.7393288,56.0912991],[60.7389557,56.0915475],[60.7386613,56.0918795],[60.73903,56.0926784],[60.739002,56.0928779],[60.7379154,56.0935847],[60.7375791,56.0939554],[60.7371097,56.0947122],[60.7367392,56.0950773],[60.7361487,56.0965537],[60.7350953,56.0967693],[60.7345985,56.096926],[60.7342748,56.0967808],[60.7340115,56.0963416],[60.7340151,56.0961488],[60.7336558,56.0959991],[60.7330069,56.0958667],[60.7310481,56.0956022],[60.7300668,56.0955788],[60.7284797,56.0957423],[60.7268748,56.0960743],[60.7256881,56.0960851],[60.7232293,56.0961914],[60.7225867,56.0960945],[60.7222038,56.0958813],[60.7221954,56.0955097],[60.7217572,56.0950382],[60.7210313,56.0948059]]]}},{"type":"Feature","properties":{"id":"rel2379979","natural":"water","name":""},"geometry":{"type":"Polygon","coordinates":[[[60.8042516,56.0897796],[60.8040123,56.0897483],[60.8037281,56.0893937],[60.8033131,56.0892956],[60.8029616,56.0893811],[60.8027373,56.0896231],[60.8020456,56.0896544],[60.8011669,56.0893624],[60.8002583,56.0892643],[60.8001162,56.0891496],[60.800206,56.0888492],[60.8001125,56.0887053],[60.7995554,56.088238],[60.7996414,56.0880941],[60.7998994,56.0880315],[60.7996825,56.0873472],[60.7997049,56.0871887],[60.7993049,56.0869738],[60.7990169,56.0868966],[60.7987664,56.0869217],[60.7977569,56.0865691],[60.7968333,56.0859474],[60.7964071,56.0859224],[60.7960781,56.0857722],[60.7960182,56.0856679],[60.7956705,56.0855615],[60.7954985,56.0855636],[60.7948554,56.0852235],[60.7944366,56.0852214],[60.7942609,56.0851401],[60.7939431,56.0852152],[60.7936028,56.0851088],[60.7933,56.0851088],[60.7930494,56.0852152],[60.7929074,56.0854154],[60.7927615,56.0854175],[60.7923241,56.0852527],[60.7921371,56.0853529],[60.7927055,56.0855114],[60.7926755,56.0855531],[60.7918698,56.0854438],[60.7911351,56.0851945],[60.7908818,56.0851805],[60.791911,56.0855194],[60.7930558,56.0856632],[60.7945272,56.0859487],[60.7965537,56.0865181],[60.7976232,56.0868898],[60.7986464,56.0874776],[60.7994157,56.0883627],[60.7998308,56.0885913],[60.8000053,56.0888539],[60.7999405,56.0890161],[60.7998546,56.0889984],[60.7998123,56.0888937],[60.7999207,56.0891828],[60.8001071,56.0893458],[60.8003186,56.0894277],[60.8006015,56.0894085],[60.8012718,56.089483],[60.8016538,56.0896976],[60.8017979,56.0897293],[60.8026096,56.0897603],[60.8029837,56.0896917],[60.8032454,56.0894793],[60.8034702,56.0894454],[60.8036367,56.0895221],[60.8036552,56.0896202],[60.8033829,56.0896792],[60.803408,56.0897382],[60.8041483,56.0898931],[60.8043982,56.0898754],[60.8048098,56.0897317],[60.8050076,56.089733],[60.8054766,56.0900814],[60.8057651,56.0901792],[60.8061518,56.0901225],[60.8066996,56.0899198],[60.807462,56.0897291],[60.8093501,56.0899485],[60.8101994,56.0899888],[60.810886,56.0899888],[60.8116449,56.0898477],[60.8119701,56.0895251],[60.8122592,56.0889304],[60.8125483,56.0888396],[60.8135059,56.0887993],[60.8138673,56.0887388],[60.8144455,56.0885473],[60.8146804,56.0883457],[60.8147473,56.0880153],[60.8151749,56.08791],[60.8162616,56.0879437],[60.8170896,56.0878495],[60.8175288,56.0876283],[60.8176317,56.0871586],[60.8175757,56.0867524],[60.8180957,56.0863673],[60.8182598,56.0861452],[60.8183104,56.0857276],[60.8177607,56.0853592],[60.8169608,56.0850281],[60.8170304,56.0845967],[60.8185174,56.0839969],[60.8189523,56.083695],[60.819019,56.0829227],[60.8189471,56.082502],[60.81832,56.0822527],[60.8181705,56.0820192],[60.8184614,56.0818298],[60.8207319,56.0818991],[60.8214858,56.0817924],[60.8220438,56.0815441],[60.8225572,56.0805367],[60.8228984,56.0802444],[60.8231243,56.0798469],[60.8221211,56.0792836],[60.8220458,56.0789441],[60.8221587,56.0786789],[60.8235917,56.0780453],[60.8244691,56.0779447],[60.8251608,56.0776027],[60.8257092,56.0769207],[60.8250414,56.0763207],[60.824408,56.07606],[60.8243775,56.0757446],[60.8247549,56.0753978],[60.8249308,56.0753155],[60.8246967,56.0752632],[60.8245762,56.0752907],[60.8240916,56.0756896],[60.8239141,56.0756635],[60.8239841,56.0750498],[60.822402,56.0746062],[60.8222326,56.0746655],[60.8222936,56.0749131],[60.822182,56.0749802],[60.8220125,56.0750028],[60.8219847,56.0750677],[60.8221162,56.0750875],[60.8221794,56.075151],[60.8217904,56.0753699],[60.8219139,56.075549],[60.8224399,56.0757212],[60.8226068,56.0760966],[60.8230612,56.0765286],[60.8230569,56.0766399],[60.8232987,56.0769079],[60.8232903,56.0770679],[60.8230828,56.0772091],[60.8228344,56.0772919],[60.8224565,56.0772966],[60.821605,56.0773974],[60.821068,56.0776739],[60.8208616,56.0778467],[60.8210208,56.078419],[60.8211892,56.0787226],[60.8212424,56.0792763],[60.8215359,56.0795469],[60.821734,56.0798451],[60.8218373,56.0802195],[60.8217857,56.0805794],[60.8215792,56.0808386],[60.8211148,56.0810545],[60.8203924,56.0811409],[60.820057,56.0809106],[60.8199796,56.0805938],[60.8196184,56.0804354],[60.8183799,56.0805362],[60.8175801,56.0807378],[60.8167286,56.0816016],[60.8169608,56.0821343],[60.8177607,56.0830126],[60.8173737,56.0833725],[60.8167802,56.0835884],[60.8163674,56.0841499],[60.8160578,56.084409],[60.8162384,56.0846826],[60.8162384,56.0851288],[60.8161352,56.0855463],[60.8165996,56.0859638],[60.8169092,56.0861509],[60.8167286,56.0865828],[60.8164448,56.0866548],[60.8154644,56.0873602],[60.815247,56.0876312],[60.8149305,56.0878047],[60.8144118,56.0878773],[60.8139985,56.0880782],[60.8138209,56.0882533],[60.8133828,56.0884349],[60.8127493,56.0884713],[60.8118789,56.0887289],[60.8116125,56.0888842],[60.8110263,56.0894259],[60.810304,56.0895217],[60.8095919,56.0895031],[60.8089202,56.0894667],[60.808516,56.0893532],[60.8076662,56.0894912],[60.8071235,56.0894413],[60.8065615,56.0890649],[60.8062053,56.089065],[60.805453,56.0892367],[60.8053484,56.0894292],[60.805001,56.0896401],[60.8048,56.0896467],[60.8042516,56.0897796]]]}},{"type":"Feature","properties":{"id":34734601,"natural":"water","name":"Чаганы озеро"},"geometry":{"type":"Polygon","coordinates":[[[60.81975,56.137],[60.819,56.13625],[60.813,56.1355],[60.8110708,56.1341873],[60.8087909,56.1334527],[60.8070194,56.133238],[60.8065913,56.1335598],[60.8090376,56.1346831],[60.810264,56.1364473],[60.8116213,56.1374831],[60.8164711,56.1396902],[60.8165923,56.1401913],[60.8145,56.14175],[60.8152672,56.1428098],[60.815,56.143],[60.81525,56.144],[60.8166122,56.1435741],[60.817,56.143],[60.8173648,56.142506],[60.8183787,56.1418407],[60.81825,56.141],[60.8190579,56.1406435],[60.8195,56.14],[60.820253,56.1387115],[60.81975,56.137]]]}},{"type":"Feature","properties":{"id":50759312,"natural":"water"},"geometry":{"type":"Polygon","coordinates":[[[60.7949415,56.1368583],[60.7959815,56.1363383],[60.7970425,56.1360183],[60.7976615,56.1356583],[60.7987136,56.1346115],[60.7980195,56.1342537],[60.7971932,56.1347557],[60.7967734,56.1348345],[60.7966952,56.1353107],[60.7966715,56.1358179],[60.7960104,56.1361823],[60.7948615,56.1362583],[60.7939015,56.1362583],[60.7935015,56.1364583],[60.7931815,56.1368583],[60.7933415,56.1373383],[60.7939015,56.1374583],[60.7944615,56.1370183],[60.7949415,56.1368583]]]}},{"type":"Feature","properties":{"id":165956085,"natural":"water"},"geometry":{"type":"Polygon","coordinates":[[[60.804616,56.1141223],[60.8045302,56.1140146],[60.8041868,56.1138112],[60.8041225,56.1136796],[60.8041659,56.1135806],[60.8045302,56.1133447],[60.8048306,56.1127524],[60.8049598,56.1123005],[60.8051417,56.1120765],[60.8053455,56.1126448],[60.8053026,56.1130156],[60.8051632,56.113237],[60.8051632,56.1134643],[60.8053032,56.1137003],[60.8050993,56.1139276],[60.8048198,56.1140924],[60.804616,56.1141223]]]}},{"type":"Feature","properties":{"id":34734596,"natural":"water"},"geometry":{"type":"Polygon","coordinates":[[[60.8282942,56.0703974],[60.8285268,56.0697291],[60.8286825,56.068964],[60.8290688,56.0684921],[60.8290465,56.0678392],[60.8287229,56.0675404],[60.827928,56.0671892],[60.8266247,56.0671367],[60.8255737,56.0677659],[60.8249971,56.068111],[60.82475,56.06875],[60.8248855,56.0692581],[60.8245872,56.0697734],[60.8239198,56.0704472],[60.8233181,56.070861],[60.8228404,56.071446],[60.8229914,56.0725793],[60.8227213,56.0733927],[60.8222298,56.0734831],[60.8220309,56.0737526],[60.822599,56.0741489],[60.8228315,56.0746545],[60.8236094,56.0748979],[60.8237019,56.0747743],[60.823993,56.0745848],[60.8241278,56.0743896],[60.8241259,56.0742666],[60.8242624,56.0741734],[60.8245335,56.074251],[60.8247628,56.0743846],[60.824848,56.0746262],[60.8248701,56.0747691],[60.8246727,56.0750827],[60.8248198,56.0751721],[60.824847,56.0752564],[60.8250164,56.075313],[60.8254091,56.0751876],[60.825494,56.0749969],[60.8253468,56.0749302],[60.8249957,56.0744222],[60.8248727,56.0741723],[60.8248919,56.0739898],[60.8256814,56.0737189],[60.8257937,56.0735785],[60.8271577,56.0729362],[60.8276021,56.0720138],[60.8282942,56.0703974]]]}},{"type":"Feature","properties":{"id":78224260,"natural":"water"},"geometry":{"type":"Polygon","coordinates":[[[60.8292954,56.0660974],[60.8291564,56.0661648],[60.8291278,56.0663744],[60.8289949,56.066441],[60.8286957,56.0664613],[60.8281929,56.0666753],[60.8280419,56.0666365],[60.8272192,56.0666628],[60.827074,56.0666981],[60.8270107,56.0667979],[60.8274017,56.0669211],[60.8275239,56.066904],[60.8275026,56.0667901],[60.82772,56.06671],[60.8280141,56.0666829],[60.8279222,56.0668854],[60.8282951,56.0671449],[60.8283956,56.067147],[60.8283733,56.0670369],[60.8285445,56.0669101],[60.8289987,56.0668935],[60.8290695,56.0668353],[60.8290434,56.0666545],[60.8292668,56.0663511],[60.8292954,56.0660974]]]}},{"type":"Feature","properties":{"id":"rel6576317","natural":"water","name":"Силач"},"geometry":{"type":"Polygon","coordinates":[[[60.6853645,55.9894043],[60.6874571,55.9898559],[60.6877766,55.989887],[60.6878936,55.9900524],[60.6877925,55.9902877],[60.6871386,55.9907172],[60.6863232,55.9911035],[60.6858671,55.9911043],[60.6854095,55.9912799],[60.6852707,55.9915178],[60.6850792,55.991598],[60.684766,55.9915299],[60.6843535,55.9918479],[60.6844363,55.992033],[60.6843003,55.9921635],[60.6837626,55.9923064],[60.6837892,55.9924017],[60.684293,55.9924943],[60.6845984,55.9926548],[60.6850053,55.992881],[60.6854022,55.992893],[60.6860726,55.9925006],[60.6863122,55.9924827],[60.6866861,55.9921995],[60.6872917,55.9921999],[60.6877602,55.9922177],[60.6881009,55.9921879],[60.6880317,55.9919974],[60.6881386,55.9919166],[60.6883405,55.9919081],[60.6886808,55.9920298],[60.6892179,55.9924405],[60.6894371,55.9927566],[60.6895,55.9935],[60.68975,55.994],[60.6912897,55.9946264],[60.6921042,55.9949748],[60.6929574,55.9952827],[60.6935,55.9958095],[60.6935203,55.996383],[60.6929027,55.9966629],[60.6917262,55.9972017],[60.6910821,55.9978954],[60.6905391,55.9981484],[60.6909543,55.9982824],[60.6908745,55.9984163],[60.6898778,55.9988007],[60.6898577,55.9990683],[60.6905,55.9995],[60.6910076,55.9999971],[60.6913536,56.0003127],[60.6920002,56.0007441],[60.6923917,56.0008366],[60.6926251,56.0009783],[60.6927205,56.0011631],[60.6927462,56.0014495],[60.6927702,56.0015972],[60.6926479,56.0016202],[60.6925037,56.0017719],[60.6924691,56.0018767],[60.6926209,56.0016951],[60.6927229,56.0016545],[60.6928557,56.0017479],[60.6929163,56.0015093],[60.6928945,56.0013191],[60.6928499,56.0011135],[60.6928499,56.0008792],[60.6928704,56.0007992],[60.6923917,56.000649],[60.6921737,56.0005061],[60.692085,56.0003036],[60.6919094,56.0000748],[60.6918058,56.000029],[60.6917894,55.9999467],[60.6919039,55.9998949],[60.6917649,55.9996998],[60.6916737,55.9994878],[60.6917364,55.9992241],[60.6918494,55.9991953],[60.6919284,55.999084],[60.6920811,55.9990871],[60.6921765,55.9989621],[60.6925144,55.9987594],[60.6927248,55.9987669],[60.6927691,55.9988566],[60.693028,55.9988505],[60.6932733,55.998948],[60.6934151,55.9989572],[60.6937025,55.998838],[60.6943309,55.9987286],[60.695,55.99875],[60.6952249,55.9988734],[60.6952631,55.9992392],[60.6954537,55.9996372],[60.695184,55.9996842],[60.6948951,55.9998062],[60.6950586,55.9998626],[60.6951976,55.9998229],[60.6954947,55.9997437],[60.6958218,55.9998595],[60.69625,56.0],[60.6965062,56.0001556],[60.69725,56.00025],[60.6982983,55.999805],[60.6990162,55.999692],[60.6993978,55.9985191],[60.6998382,55.9980789],[60.7002526,55.9980267],[60.7014464,55.9985133],[60.7022163,55.9991039],[60.7028228,55.9991496],[60.7035,55.99925],[60.7037631,55.9993859],[60.7039812,55.9993668],[60.7041447,55.9991915],[60.7045399,55.9991458],[60.7048125,55.9993668],[60.7054394,55.999424],[60.706148,55.999302],[60.7067206,55.999391],[60.7072615,55.99958],[60.7077462,55.9997462],[60.7076658,55.9999723],[60.7068209,56.0002771],[60.7062703,56.0001674],[60.7055507,56.0006521],[60.7048303,56.0007876],[60.7038281,56.0012647],[60.704018,56.0014827],[60.7044169,56.001658],[60.7051255,56.0017281],[60.7061699,56.0019065],[60.7068372,56.0020481],[60.7078974,56.0020406],[60.7087143,56.00194],[60.7090951,56.0017631],[60.7099541,56.0018546],[60.710326,56.0017677],[60.7112581,56.0018348],[60.7114871,56.0019414],[60.7116779,56.0019201],[60.711836,56.0017646],[60.7121583,56.0017815],[60.7132751,56.0027675],[60.7131443,56.0029961],[60.7135017,56.0034218],[60.7134877,56.0039013],[60.713525,56.004379],[60.7134223,56.0048096],[60.7135422,56.0055045],[60.7138202,56.0058672],[60.7140188,56.0069583],[60.7142688,56.0077083],[60.7147688,56.0082083],[60.7148553,56.0084553],[60.715074,56.0090399],[60.7148124,56.0092905],[60.7141886,56.0094477],[60.7152688,56.0099583],[60.7152688,56.0104583],[60.7151339,56.0109171],[60.7142345,56.0108196],[60.7131988,56.0104996],[60.7132789,56.0100986],[60.7131443,56.0098322],[60.714011,56.009436],[60.7132135,56.0092357],[60.7121598,56.0080651],[60.7112852,56.0081198],[60.7099608,56.0084974],[60.7077694,56.0084395],[60.7060352,56.0082539],[60.7045188,56.0089583],[60.7040188,56.0089583],[60.7035188,56.0087083],[60.7040188,56.0082083],[60.7042688,56.0079583],[60.7035188,56.0077083],[60.7032688,56.0072083],[60.701555,56.0075191],[60.6997688,56.0072083],[60.6978553,56.0062693],[60.6957639,56.0062226],[60.6930178,56.0050595],[60.6923926,56.0048332],[60.6920306,56.0047055],[60.6918377,56.0044052],[60.6920709,56.0040784],[60.6917339,56.003715],[60.6914757,56.0037217],[60.6914457,56.00397],[60.6914609,56.0042177],[60.6912413,56.0045064],[60.6911377,56.0047253],[60.6909711,56.0047496],[60.6908077,56.0047603],[60.6907193,56.0047816],[60.6908374,56.004825],[60.690848,56.0049603],[60.6912609,56.0050332],[60.691471,56.0051466],[60.691738,56.0056241],[60.6920961,56.0057716],[60.6918286,56.0063329],[60.691581,56.0063491],[60.6912971,56.006631],[60.691639,56.0066083],[60.6917688,56.0067083],[60.6920544,56.0068347],[60.6926239,56.0068282],[60.6931226,56.007522],[60.6932472,56.0076683],[60.6934124,56.0078622],[60.6933196,56.0080696],[60.6937485,56.0085718],[60.6939629,56.0086171],[60.6941885,56.0088023],[60.6945486,56.0092018],[60.6967688,56.0092083],[60.6972688,56.0094583],[60.6975188,56.0099583],[60.7000188,56.0099583],[60.7010188,56.0094583],[60.7015188,56.0092083],[60.7032688,56.0094583],[60.7042688,56.0094583],[60.7035188,56.0097083],[60.7032688,56.0099583],[60.7035188,56.0102083],[60.7052688,56.0099583],[60.7060188,56.0104583],[60.7065188,56.0104583],[60.7085188,56.0117083],[60.7087688,56.0122083],[60.7090188,56.0127083],[60.7115188,56.0134583],[60.7120188,56.0137083],[60.7120188,56.0144583],[60.7135188,56.0144583],[60.7157688,56.0152083],[60.7175188,56.0157083],[60.7177688,56.0162083],[60.7170188,56.0167083],[60.7165188,56.0169583],[60.7157506,56.0169563],[60.7146651,56.0171828],[60.7150847,56.0175198],[60.7161038,56.0177527],[60.7168117,56.0185379],[60.7168966,56.018878],[60.7167688,56.0192083],[60.7167268,56.0205623],[60.7174481,56.0211085],[60.7219859,56.0226055],[60.7233345,56.0226243],[60.7260895,56.0225532],[60.7270188,56.0224583],[60.7295188,56.0214583],[60.7305188,56.0202083],[60.7315188,56.0202083],[60.7320188,56.0199583],[60.7325188,56.0189583],[60.7347688,56.0194583],[60.7345188,56.0197083],[60.7342688,56.0194583],[60.7337071,56.0193162],[60.7332688,56.0194583],[60.7332688,56.0202083],[60.7342688,56.0209583],[60.7350262,56.0211451],[60.735841,56.0210541],[60.7363771,56.0212003],[60.7363074,56.0214476],[60.7359194,56.0215182],[60.7354953,56.0215989],[60.735369,56.0217653],[60.7355188,56.0219583],[60.7372933,56.0240931],[60.7395188,56.0262084],[60.7404606,56.0270262],[60.7416315,56.0271739],[60.7420344,56.0272361],[60.7427735,56.0270478],[60.7437603,56.0266854],[60.7447547,56.0266002],[60.7470592,56.0271424],[60.7484408,56.0273866],[60.7488497,56.0276781],[60.7493459,56.0277656],[60.750189,56.0277411],[60.7506401,56.0278593],[60.7511194,56.0281192],[60.7517547,56.0283266],[60.7527689,56.028521],[60.7538402,56.028356],[60.7560851,56.0278494],[60.7567842,56.0276874],[60.7573324,56.0277052],[60.7579561,56.0276485],[60.7583506,56.0273032],[60.7590275,56.0270686],[60.7594347,56.0270881],[60.759653,56.0271573],[60.7597255,56.02724],[60.7600594,56.0272894],[60.7604826,56.0272221],[60.7608763,56.027149],[60.7622688,56.0262084],[60.7619185,56.0260307],[60.7619678,56.0258897],[60.7621882,56.0258719],[60.7624,56.025726],[60.7625305,56.025713],[60.7627162,56.0257471],[60.762809,56.0259059],[60.7628467,56.0260648],[60.763085,56.026161],[60.7637952,56.0261312],[60.7640592,56.0261442],[60.7643174,56.026094],[60.7645349,56.0260145],[60.7646075,56.0259497],[60.7648105,56.0259789],[60.7653471,56.0259238],[60.7656615,56.0259175],[60.7663769,56.026222],[60.7667859,56.0263582],[60.7672688,56.0264584],[60.767572,56.0265187],[60.7674589,56.026577],[60.7676648,56.0266143],[60.7681028,56.0265365],[60.768209,56.0264573],[60.7690188,56.0259584],[60.7687688,56.0257084],[60.7692867,56.0253423],[60.7696329,56.0251731],[60.7700367,56.0248896],[60.7712688,56.0249584],[60.7715188,56.0252084],[60.7732688,56.0234583],[60.7735188,56.0227083],[60.7732688,56.0222083],[60.7735188,56.0219583],[60.7737688,56.0222083],[60.7744604,56.021946],[60.7745188,56.0214583],[60.7757688,56.0194583],[60.7757688,56.0189583],[60.7765188,56.0187083],[60.7785188,56.0164583],[60.7787688,56.0162083],[60.7797688,56.0139583],[60.7805188,56.0134583],[60.7800536,56.0129845],[60.7795425,56.0123935],[60.7787401,56.0118364],[60.7782385,56.0109158],[60.777823,56.0088762],[60.7767492,56.0078922],[60.777073,56.0063762],[60.7775488,56.0058762],[60.7786931,56.0051028],[60.7801417,56.0051818],[60.7809523,56.0053],[60.7817982,56.005231],[60.7823797,56.0050143],[60.7830494,56.0049946],[60.7836838,56.0050734],[60.7841435,56.0050141],[60.7867107,56.0044711],[60.7874992,56.0042444],[60.788105,56.0036262],[60.7880345,56.003343],[60.7877334,56.0032513],[60.786823,56.0033762],[60.786323,56.0033762],[60.786823,56.0028762],[60.788323,56.0028762],[60.788573,56.0026262],[60.7883185,56.0022356],[60.7875078,56.0018809],[60.7874197,56.0014276],[60.7887845,56.0011163],[60.7886004,56.0003831],[60.788323,55.9996262],[60.785823,55.9978762],[60.786073,55.9973762],[60.784823,55.9963762],[60.784323,55.9956262],[60.783323,55.9961262],[60.782823,55.9958762],[60.783573,55.9951262],[60.782073,55.9943762],[60.782823,55.9941262],[60.783073,55.9938762],[60.782573,55.9926262],[60.7809024,55.9905103],[60.7784915,55.9902625],[60.7778799,55.9898544],[60.7774722,55.9895382],[60.777176,55.9893162],[60.776823,55.9881262],[60.7758842,55.9873242],[60.773823,55.9861262],[60.771823,55.9851262],[60.7706084,55.9843063],[60.7699883,55.9840473],[60.768323,55.9831262],[60.767573,55.9826261],[60.765573,55.9818761],[60.764573,55.9818761],[60.764073,55.9818761],[60.761323,55.9808761],[60.761073,55.9806261],[60.759823,55.9811261],[60.759323,55.9811261],[60.759073,55.9803761],[60.760323,55.9801261],[60.7611234,55.9802401],[60.7625945,55.9795484],[60.7633412,55.9788902],[60.7633514,55.9776814],[60.7630922,55.976704],[60.763073,55.9761261],[60.7627356,55.9756784],[60.7627608,55.9754971],[60.7634501,55.9752198],[60.7638615,55.974816],[60.763949,55.9744099],[60.763573,55.9736261],[60.7631814,55.9727626],[60.7624626,55.9725945],[60.7620929,55.9723086],[60.7606826,55.9720586],[60.7605919,55.9725845],[60.7601433,55.9727114],[60.7597529,55.9725254],[60.7594832,55.9719136],[60.7584569,55.9715335],[60.7578758,55.9714955],[60.7570782,55.9712324],[60.7563181,55.9717665],[60.756214,55.9724581],[60.7557859,55.9734943],[60.7545196,55.9738786],[60.7535731,55.9742895],[60.7533655,55.9747233],[60.7540382,55.9752053],[60.754823,55.9756261],[60.7549567,55.9763329],[60.7534635,55.9766855],[60.752323,55.9761261],[60.7503643,55.9742494],[60.749073,55.9738761],[60.7476555,55.9737342],[60.746573,55.9738761],[60.746323,55.974634],[60.7444552,55.9747216],[60.7422619,55.9746716],[60.7417047,55.974525],[60.7411283,55.9746657],[60.7412689,55.9749267],[60.7420257,55.9752231],[60.742573,55.9756261],[60.7420959,55.975693],[60.7430902,55.9762191],[60.7434803,55.9759201],[60.7437323,55.975924],[60.7438953,55.9760002],[60.7433251,55.9766873],[60.7427135,55.9767428],[60.7416299,55.9762056],[60.7414582,55.9765808],[60.7420939,55.9768674],[60.7424507,55.9773567],[60.7428503,55.9772651],[60.742743,55.9769424],[60.743216,55.9768712],[60.7438953,55.977153],[60.7448099,55.977331],[60.7455764,55.9768819],[60.7466325,55.9754741],[60.7471285,55.975348],[60.747588,55.9759686],[60.7482143,55.9763044],[60.7483962,55.9765707],[60.747573,55.9766261],[60.7481977,55.9770642],[60.7481149,55.9778425],[60.7485317,55.9786069],[60.7492741,55.9789821],[60.7500359,55.9794546],[60.7495295,55.9798459],[60.7488601,55.9800197],[60.748073,55.9798761],[60.7474468,55.9795311],[60.7470705,55.9794498],[60.7461629,55.9794301],[60.7458991,55.9800998],[60.7454278,55.9802502],[60.7447151,55.9801339],[60.7443183,55.9799205],[60.7444422,55.9796624],[60.744391,55.9791889],[60.7439055,55.9790416],[60.7430081,55.9789173],[60.7426471,55.9792194],[60.7428359,55.9795675],[60.7432218,55.9799063],[60.7436978,55.9803493],[60.7435937,55.9808673],[60.7439606,55.9815777],[60.7432937,55.9822487],[60.7429215,55.9825128],[60.7421814,55.9826908],[60.7416557,55.9830662],[60.7402603,55.9835707],[60.7392617,55.9834861],[60.738573,55.9833762],[60.73929,55.9845206],[60.7392751,55.9861464],[60.7388958,55.9865177],[60.7382459,55.9867012],[60.7373741,55.9868079],[60.7372242,55.9869575],[60.7373672,55.9876591],[60.7376698,55.987839],[60.7383148,55.9877984],[60.7390592,55.9877438],[60.7400925,55.9880538],[60.740823,55.9881262],[60.7413652,55.9883826],[60.7423197,55.9884329],[60.7426863,55.9885103],[60.7430582,55.9884381],[60.7438829,55.9888314],[60.743988,55.9894226],[60.7436408,55.9897484],[60.7431774,55.9898606],[60.742631,55.9898528],[60.7422252,55.9897732],[60.7423833,55.9900759],[60.7419534,55.990692],[60.7415588,55.9909013],[60.7414205,55.9912147],[60.741047,55.9912572],[60.7408256,55.9910793],[60.7404383,55.990909],[60.7392417,55.9909284],[60.7382216,55.9911776],[60.737627,55.9912917],[60.7376542,55.9917772],[60.7381404,55.992414],[60.738093,55.9927886],[60.737343,55.9933339],[60.7367358,55.9937563],[60.736147,55.9938088],[60.735655,55.9937236],[60.7349396,55.9934655],[60.7342756,55.993349],[60.7345276,55.9935561],[60.7347032,55.9942095],[60.735242,55.9947773],[60.7361888,55.9948704],[60.7365197,55.994995],[60.7369046,55.9956597],[60.7373026,55.9958188],[60.7376338,55.9961406],[60.737823,55.9966262],[60.7379984,55.997065],[60.737627,55.9974706],[60.7378703,55.9977217],[60.737742,55.9978954],[60.7371883,55.9982201],[60.7367426,55.9983485],[60.7361416,55.9987035],[60.7352016,55.9990378],[60.7345749,55.9990509],[60.7338388,55.9988848],[60.7330121,55.9985152],[60.7320394,55.9986436],[60.7317757,55.9989593],[60.7319616,55.9992964],[60.7317252,55.9995154],[60.7313741,55.9995909],[60.7310432,55.999538],[60.7307123,55.999708],[60.7303139,56.0001498],[60.7299965,56.0001838],[60.7297129,56.0000629],[60.7289582,56.000099],[60.728288,55.9998401],[60.7273966,55.9992057],[60.725957,55.9982514],[60.7238637,55.9979634],[60.7234106,55.997559],[60.7223927,55.9974673],[60.7220252,55.9967355],[60.721546,55.9965991],[60.7210536,55.9963859],[60.7200996,55.9966819],[60.7197075,55.996716],[60.7193987,55.9961993],[60.718323,55.9956881],[60.7162547,55.9962554],[60.7154622,55.9963078],[60.7154204,55.9963828],[60.7155845,55.9964447],[60.7154846,55.9965884],[60.7152491,55.9967001],[60.7149421,55.996772],[60.7147173,55.9967161],[60.714496,55.9966203],[60.7144603,55.9964127],[60.7145769,55.9963842],[60.7147423,55.996281],[60.7144104,55.9961213],[60.7139802,55.9959755],[60.7132732,55.9960513],[60.713122,55.9962012],[60.7131791,55.9966083],[60.7125581,55.9971891],[60.712269,55.997253],[60.7123226,55.9976082],[60.7122011,55.9978383],[60.7117444,55.9981252],[60.7112947,55.9982908],[60.7109057,55.998205],[60.7106702,55.9981152],[60.7104552,55.997964],[60.7096138,55.9974586],[60.709653,55.9971033],[60.7096816,55.9969376],[60.7098101,55.9968578],[60.7096352,55.9967241],[60.7095352,55.9965604],[60.7093283,55.9965225],[60.7091898,55.9963136],[60.7089856,55.9958199],[60.7091462,55.9956603],[60.7094398,55.9956609],[60.7099721,55.9949314],[60.710337,55.9945551],[60.7103483,55.994308],[60.7105371,55.9941423],[60.7105164,55.993961],[60.7103164,55.9938298],[60.710318,55.9936725],[60.7105578,55.9935829],[60.7104267,55.9933978],[60.7104888,55.9932184],[60.7104371,55.9930968],[60.7103931,55.9929769],[60.7102783,55.9928647],[60.7094849,55.992779],[60.7091387,55.9927032],[60.7087305,55.9924834],[60.7079354,55.9922314],[60.7077327,55.9917055],[60.7077478,55.9914011],[60.7074937,55.9910912],[60.7069768,55.9911559],[60.7065693,55.9911631],[60.7063419,55.9910333],[60.7062739,55.9907077],[60.7063488,55.9905534],[60.7064175,55.9904118],[60.7059413,55.9905302],[60.7055104,55.9904837],[60.7052589,55.9901679],[60.705188,55.9889982],[60.7041118,55.9892101],[60.703536,55.9889211],[60.703316,55.9886289],[60.7021241,55.9883826],[60.6996851,55.9878826],[60.6979656,55.9871904],[60.6965018,55.9869103],[60.6955039,55.9866977],[60.6942326,55.9866647],[60.6932216,55.986423],[60.6927842,55.9862266],[60.6926447,55.9861005],[60.692414,55.9861185],[60.6919151,55.9861606],[60.6915182,55.9861095],[60.6912024,55.985902],[60.6908476,55.9859415],[60.6908047,55.9860345],[60.6905204,55.9860975],[60.6903809,55.9860435],[60.689963,55.986121],[60.6898928,55.9861951],[60.6898606,55.9863061],[60.6896487,55.9865146],[60.6894327,55.986506],[60.6893514,55.9868329],[60.6894073,55.9869663],[60.6895247,55.9869614],[60.6896192,55.9870863],[60.6896058,55.9871253],[60.689469,55.9871613],[60.6894556,55.9872288],[60.6895885,55.9873085],[60.6894368,55.9874239],[60.6892866,55.9873729],[60.6890559,55.9873294],[60.6888293,55.9873205],[60.6888145,55.9873999],[60.6889138,55.9874854],[60.6890264,55.9875034],[60.689136,55.9876293],[60.6891989,55.9878901],[60.6884759,55.9886299],[60.6881314,55.9888089],[60.6873739,55.9886745],[60.6866813,55.988406],[60.6864849,55.9882577],[60.6862666,55.9881713],[60.6855878,55.9882446],[60.6853642,55.9883533],[60.6853645,55.9894043]],[[60.6854548,55.9922632],[60.6850715,55.9921292],[60.6849863,55.9919237],[60.6851354,55.9917749],[60.6853696,55.9915277],[60.6854229,55.9914027],[60.685676,55.9914311],[60.6858919,55.9915165],[60.6859333,55.9915592],[60.6858766,55.9917421],[60.6858199,55.9918421],[60.685905,55.991958],[60.6859529,55.9921129],[60.6858919,55.9922373],[60.6857763,55.9923141],[60.6855452,55.9923031],[60.6854548,55.9922632]],[[60.7084519,55.9948256],[60.708032,55.9949344],[60.7072892,55.9949963],[60.7067883,55.9950223],[60.7059812,55.9946956],[60.7053276,55.994289],[60.7052229,55.9941828],[60.7052232,55.994018],[60.7054014,55.9938589],[60.7056551,55.9937923],[60.7058692,55.9937591],[60.7059287,55.9936726],[60.7055996,55.9936371],[60.7054092,55.9935245],[60.7052785,55.9934264],[60.7052156,55.9932317],[60.7052058,55.9929627],[60.7056336,55.9927925],[60.7064307,55.9927345],[60.7069995,55.9931006],[60.7079336,55.993319],[60.7083148,55.9935657],[60.7084536,55.9941202],[60.7084925,55.9944772],[60.7084519,55.9948256]],[[60.7399863,55.9913327],[60.739683,55.9915297],[60.7395461,55.9918142],[60.7395754,55.9921041],[60.7397062,55.9922543],[60.7398757,55.9924149],[60.7399172,55.9925484],[60.7399414,55.9927747],[60.7400936,55.9928714],[60.7402942,55.9929178],[60.7404602,55.992972],[60.7406539,55.9930668],[60.7408268,55.9931229],[60.7409997,55.993117],[60.7411311,55.9930513],[60.7412383,55.9929546],[60.7413905,55.9928172],[60.7415427,55.9926122],[60.7416845,55.9923627],[60.7416361,55.9921557],[60.7416084,55.9919178],[60.7415427,55.9917688],[60.7413179,55.9916141],[60.7411277,55.9915019],[60.7407161,55.9913452],[60.740557,55.9913162],[60.7404533,55.9913181],[60.74027,55.9913297],[60.74027,55.9913007],[60.7403979,55.991291],[60.7404913,55.9912678],[60.7405328,55.9911827],[60.7404809,55.9911498],[60.74027,55.9911247],[60.7400452,55.9911073],[60.7399345,55.9911634],[60.7398999,55.9912407],[60.7399172,55.9912794],[60.7400832,55.9913007],[60.7401593,55.9913007],[60.7401766,55.9913259],[60.7399863,55.9913327]],[[60.6985939,55.9930468],[60.6981647,55.9936184],[60.6981084,55.9938374],[60.6983229,55.9939229],[60.6989774,55.9937849],[60.69942,55.9934069],[60.6989828,55.9931338],[60.6985939,55.9930468]],[[60.7068926,55.998273],[60.7068765,55.9980045],[60.7070321,55.997883],[60.7075819,55.997937],[60.7076034,55.9981485],[60.7071018,55.998357],[60.7068926,55.998273]],[[60.7079279,55.99698],[60.708105,55.99677],[60.7080996,55.996554],[60.7085234,55.996503],[60.7087755,55.996674],[60.7087326,55.996887],[60.7083249,55.996986],[60.7079279,55.99698]],[[60.71392,55.998372],[60.7136732,55.998282],[60.7137483,55.998069],[60.7141989,55.99809],[60.7142311,55.998228],[60.71392,55.998372]],[[60.7174578,55.9964175],[60.7175168,55.9965285],[60.7180855,55.996659],[60.7186434,55.996455],[60.7185656,55.996203],[60.7181284,55.996098],[60.7176375,55.9962465],[60.7174578,55.9964175]],[[60.7146227,56.0129696],[60.7143545,56.0126937],[60.714317,56.0115961],[60.7152986,56.0116201],[60.7156473,56.012028],[60.7153577,56.0123608],[60.7151699,56.0129996],[60.7146227,56.0129696]],[[60.7442826,55.9757763],[60.743773,55.9757433],[60.7434672,55.9755242],[60.7434779,55.9753891],[60.7438642,55.9753831],[60.7442504,55.9755692],[60.7443577,55.9756773],[60.7443577,55.9757523],[60.7442826,55.9757763]]]}},{"type":"Feature","properties":{"id":26706564,"natural":"water","name":"Карагуз"},"geometry":{"type":"Polygon","coordinates":[[[60.8783808,56.1137865],[60.8788994,56.1137981],[60.8795509,56.1136842],[60.8800531,56.1135182],[60.8812557,56.1134303],[60.8814683,56.1132903],[60.8819705,56.1133847],[60.8831544,56.1131562],[60.8841121,56.1130625],[60.8847824,56.1128907],[60.8861266,56.1125793],[60.8870235,56.1122134],[60.8873678,56.112073],[60.8887584,56.1118114],[60.8895458,56.1115538],[60.8903333,56.1112026],[60.8909012,56.1111325],[60.8910395,56.1109792],[60.8913209,56.1111289],[60.891845,56.1109974],[60.8925758,56.1110156],[60.8938225,56.1110417],[60.8945467,56.1110938],[60.8952839,56.1110189],[60.895446,56.1109674],[60.8960404,56.1107628],[60.8965727,56.1104338],[60.8979841,56.1096198],[60.8987643,56.1085209],[60.8994935,56.1076198],[60.8997621,56.1065052],[60.8997973,56.1057292],[60.8999654,56.1050104],[60.9005,56.10475],[60.90025,56.1045],[60.90075,56.103],[60.9005,56.102],[60.901,56.10075],[60.8995,56.09975],[60.8979345,56.0983345],[60.89619,56.0960988],[60.8942674,56.0947774],[60.8930293,56.0937815],[60.8908942,56.0926335],[60.8875146,56.0911875],[60.8864407,56.09099],[60.885224,56.0907608],[60.8838572,56.0906889],[60.88125,56.09125],[60.878496,56.092056],[60.8772375,56.0921889],[60.8765455,56.0925557],[60.8751625,56.0928849],[60.8728033,56.0931668],[60.8712197,56.0934697],[60.8680472,56.0944452],[60.8656021,56.0960078],[60.864762,56.0966481],[60.8636301,56.0976601],[60.863,56.0985],[60.8625,56.09925],[60.862,56.1],[60.8605,56.10075],[60.86025,56.1015],[60.859,56.1025],[60.85775,56.1035],[60.8585,56.104],[60.8565,56.10525],[60.85675,56.107],[60.8565,56.10725],[60.85625,56.1075],[60.8565,56.10775],[60.857,56.10775],[60.85675,56.1085],[60.856,56.10975],[60.859,56.113],[60.8595,56.11225],[60.86025,56.113],[60.86225,56.1135],[60.86275,56.11375],[60.863,56.11425],[60.8665,56.11475],[60.8675,56.115],[60.866,56.11525],[60.8665,56.11575],[60.86975,56.11575],[60.8717126,56.1150209],[60.8734231,56.1148072],[60.8752407,56.114526],[60.8754377,56.1143515],[60.8757417,56.1144361],[60.8770613,56.1142232],[60.8771886,56.114096],[60.8775045,56.1141313],[60.8783162,56.1139485],[60.8783808,56.1137865]]]}}]}
